{
"type": "FeatureCollection",
"name": "Frames_Information",
"crs": { "type": "name", "properties": { "name": "urn:ogc:def:crs:OGC:1.3:CRS84" } },
"features": [
{ "type": "Feature", "properties": { "frame_id": 1093, "is_land": 1, "is_north_america": true, "orbit_pass": "ASCENDING", "num_burst_ids": 27, "num_dates": 226, "region_name": "Texas" }, "geometry": { "type": "Polygon", "coordinates": [ [ [ -100.6975, 26.34695 ], [ -98.2313, 26.878802 ], [ -97.934442, 25.344579 ], [ -100.37012, 24.820055 ], [ -100.6975, 26.34695 ] ] ] } },
{ "type": "Feature", "properties": { "frame_id": 1094, "is_land": 1, "is_north_america": true, "orbit_pass": "ASCENDING", "num_burst_ids": 27, "num_dates": 231, "region_name": "Coahuila" }, "geometry": { "type": "Polygon", "coordinates": [ [ [ -100.985442, 27.678616 ], [ -98.488881, 28.207983 ], [ -98.191449, 26.674052 ], [ -100.655252, 26.15213 ], [ -100.985442, 27.678616 ] ] ] } },
{ "type": "Feature", "properties": { "frame_id": 1095, "is_land": 1, "is_north_america": true, "orbit_pass": "ASCENDING", "num_burst_ids": 27, "num_dates": 231, "region_name": "Texas" }, "geometry": { "type": "Polygon", "coordinates": [ [ [ -101.276105, 29.009858 ], [ -98.747306, 29.536809 ], [ -98.44891, 28.003216 ], [ -100.942771, 27.483807 ], [ -101.276105, 29.009858 ] ] ] } },
{ "type": "Feature", "properties": { "frame_id": 1096, "is_land": 1, "is_north_america": true, "orbit_pass": "ASCENDING", "num_burst_ids": 27, "num_dates": 231, "region_name": "Texas" }, "geometry": { "type": "Polygon", "coordinates": [ [ [ -101.569798, 30.340652 ], [ -99.0065, 30.865304 ], [ -98.707184, 29.332028 ], [ -101.232965, 28.815062 ], [ -101.569798, 30.340652 ] ] ] } },
{ "type": "Feature", "properties": { "frame_id": 1097, "is_land": 1, "is_north_america": true, "orbit_pass": "ASCENDING", "num_burst_ids": 27, "num_dates": 232, "region_name": "Texas" }, "geometry": { "type": "Polygon", "coordinates": [ [ [ -101.866933, 31.670959 ], [ -99.266727, 32.193441 ], [ -98.966194, 30.660509 ], [ -101.526141, 30.14587 ], [ -101.866933, 31.670959 ] ] ] } },
{ "type": "Feature", "properties": { "frame_id": 1098, "is_land": 1, "is_north_america": true, "orbit_pass": "ASCENDING", "num_burst_ids": 27, "num_dates": 232, "region_name": "Texas" }, "geometry": { "type": "Polygon", "coordinates": [ [ [ -102.167866, 33.000754 ], [ -99.52827, 33.521195 ], [ -99.226202, 31.988633 ], [ -101.822706, 31.476193 ], [ -102.167866, 33.000754 ] ] ] } },
{ "type": "Feature", "properties": { "frame_id": 1099, "is_land": 1, "is_north_america": true, "orbit_pass": "ASCENDING", "num_burst_ids": 27, "num_dates": 231, "region_name": "Texas" }, "geometry": { "type": "Polygon", "coordinates": [ [ [ -102.472901, 34.330026 ], [ -99.792085, 34.848448 ], [ -99.487489, 33.316375 ], [ -102.123014, 32.806006 ], [ -102.472901, 34.330026 ] ] ] } },
{ "type": "Feature", "properties": { "frame_id": 1100, "is_land": 1, "is_north_america": true, "orbit_pass": "ASCENDING", "num_burst_ids": 27, "num_dates": 231, "region_name": "Texas" }, "geometry": { "type": "Polygon", "coordinates": [ [ [ -102.782536, 35.658734 ], [ -100.057125, 36.175371 ], [ -99.75101, 34.643626 ], [ -102.427363, 34.135296 ], [ -102.782536, 35.658734 ] ] ] } },
{ "type": "Feature", "properties": { "frame_id": 1101, "is_land": 1, "is_north_america": true, "orbit_pass": "ASCENDING", "num_burst_ids": 15, "num_dates": 236, "region_name": "Texas" }, "geometry": { "type": "Polygon", "coordinates": [ [ [ -103.097308, 36.986839 ], [ -100.324252, 37.501864 ], [ -100.015712, 35.970541 ], [ -102.736247, 35.464026 ], [ -103.097308, 36.986839 ] ] ] } },
{ "type": "Feature", "properties": { "frame_id": 1102, "is_land": 1, "is_north_america": true, "orbit_pass": "ASCENDING", "num_burst_ids": 27, "num_dates": 92, "region_name": "Kansas" }, "geometry": { "type": "Polygon", "coordinates": [ [ [ -103.421928, 38.31366 ], [ -100.593825, 38.827905 ], [ -100.282457, 37.297027 ], [ -103.054246, 36.79155 ], [ -103.421928, 38.31366 ] ] ] } },
{ "type": "Feature", "properties": { "frame_id": 3060, "is_land": 1, "is_north_america": true, "orbit_pass": "DESCENDING", "num_burst_ids": 27, "num_dates": 85, "region_name": "Kansas" }, "geometry": { "type": "Polygon", "coordinates": [ [ [ -102.037084, 37.279675 ], [ -101.725605, 38.810487 ], [ -98.843882, 38.527177 ], [ -99.212658, 37.005209 ], [ -102.037084, 37.279675 ] ] ] } },
{ "type": "Feature", "properties": { "frame_id": 3061, "is_land": 1, "is_north_america": true, "orbit_pass": "DESCENDING", "num_burst_ids": 27, "num_dates": 85, "region_name": "Texas" }, "geometry": { "type": "Polygon", "coordinates": [ [ [ -102.303933, 35.953237 ], [ -101.995284, 37.484497 ], [ -99.165391, 37.199862 ], [ -99.527777, 35.677259 ], [ -102.303933, 35.953237 ] ] ] } },
{ "type": "Feature", "properties": { "frame_id": 3062, "is_land": 1, "is_north_america": true, "orbit_pass": "DESCENDING", "num_burst_ids": 27, "num_dates": 85, "region_name": "Texas" }, "geometry": { "type": "Polygon", "coordinates": [ [ [ -102.569337, 34.626448 ], [ -102.262515, 36.158053 ], [ -99.481346, 35.87194 ], [ -99.837743, 34.348705 ], [ -102.569337, 34.626448 ] ] ] } },
{ "type": "Feature", "properties": { "frame_id": 3063, "is_land": 1, "is_north_america": true, "orbit_pass": "DESCENDING", "num_burst_ids": 27, "num_dates": 79, "region_name": "Texas" }, "geometry": { "type": "Polygon", "coordinates": [ [ [ -102.832301, 33.29916 ], [ -102.528257, 34.831264 ], [ -99.795752, 34.544009 ], [ -100.146548, 33.020126 ], [ -102.832301, 33.29916 ] ] ] } },
{ "type": "Feature", "properties": { "frame_id": 3064, "is_land": 1, "is_north_america": true, "orbit_pass": "DESCENDING", "num_burst_ids": 27, "num_dates": 79, "region_name": "Texas" }, "geometry": { "type": "Polygon", "coordinates": [ [ [ -103.095663, 31.971734 ], [ -102.793579, 33.504264 ], [ -100.101578, 33.214883 ], [ -100.44749, 31.690439 ], [ -103.095663, 31.971734 ] ] ] } },
{ "type": "Feature", "properties": { "frame_id": 3065, "is_land": 1, "is_north_america": true, "orbit_pass": "DESCENDING", "num_burst_ids": 27, "num_dates": 79, "region_name": "Texas" }, "geometry": { "type": "Polygon", "coordinates": [ [ [ -103.355686, 30.643651 ], [ -103.055133, 32.176551 ], [ -100.403155, 31.885214 ], [ -100.74463, 30.360238 ], [ -103.355686, 30.643651 ] ] ] } },
{ "type": "Feature", "properties": { "frame_id": 3066, "is_land": 1, "is_north_america": true, "orbit_pass": "DESCENDING", "num_burst_ids": 24, "num_dates": 237, "region_name": "Texas" }, "geometry": { "type": "Polygon", "coordinates": [ [ [ -103.614882, 29.315234 ], [ -103.315375, 30.848455 ], [ -100.700873, 30.555029 ], [ -101.038405, 29.029559 ], [ -103.614882, 29.315234 ] ] ] } },
{ "type": "Feature", "properties": { "frame_id": 3067, "is_land": 1, "is_north_america": true, "orbit_pass": "DESCENDING", "num_burst_ids": 27, "num_dates": 237, "region_name": "Chihuahua" }, "geometry": { "type": "Polygon", "coordinates": [ [ [ -103.87295, 27.986428 ], [ -103.574754, 29.520026 ], [ -100.995174, 29.224364 ], [ -101.329068, 27.698416 ], [ -103.87295, 27.986428 ] ] ] } },
{ "type": "Feature", "properties": { "frame_id": 3068, "is_land": 1, "is_north_america": true, "orbit_pass": "DESCENDING", "num_burst_ids": 27, "num_dates": 231, "region_name": "Chihuahua" }, "geometry": { "type": "Polygon", "coordinates": [ [ [ -104.130433, 26.657302 ], [ -103.832974, 28.191205 ], [ -101.286313, 27.893233 ], [ -101.617009, 26.366844 ], [ -104.130433, 26.657302 ] ] ] } },
{ "type": "Feature", "properties": { "frame_id": 3069, "is_land": 1, "is_north_america": true, "orbit_pass": "DESCENDING", "num_burst_ids": 27, "num_dates": 231, "region_name": "Chihuahua" }, "geometry": { "type": "Polygon", "coordinates": [ [ [ -104.387464, 25.327867 ], [ -104.090576, 26.862061 ], [ -101.574684, 26.561673 ], [ -101.902517, 25.034871 ], [ -104.387464, 25.327867 ] ] ] } },
{ "type": "Feature", "properties": { "frame_id": 3070, "is_land": 1, "is_north_america": true, "orbit_pass": "DESCENDING", "num_burst_ids": 27, "num_dates": 234, "region_name": "Coahuila" }, "geometry": { "type": "Polygon", "coordinates": [ [ [ -104.644228, 23.998142 ], [ -104.347697, 25.532607 ], [ -101.860579, 25.22971 ], [ -102.185866, 23.702521 ], [ -104.644228, 23.998142 ] ] ] } },
{ "type": "Feature", "properties": { "frame_id": 5119, "is_land": 1, "is_north_america": true, "orbit_pass": "ASCENDING", "num_burst_ids": 14, "num_dates": 138, "region_name": "Baja California Sur" }, "geometry": { "type": "Polygon", "coordinates": [ [ [ -110.590759, 24.526061 ], [ -108.163847, 25.06127 ], [ -107.867427, 23.526642 ], [ -110.266899, 22.998576 ], [ -110.590759, 24.526061 ] ] ] } },
{ "type": "Feature", "properties": { "frame_id": 5120, "is_land": 1, "is_north_america": true, "orbit_pass": "ASCENDING", "num_burst_ids": 22, "num_dates": 138, "region_name": "Baja California Sur" }, "geometry": { "type": "Polygon", "coordinates": [ [ [ -110.87534, 25.85832 ], [ -108.420762, 26.390915 ], [ -108.124114, 24.856538 ], [ -110.549023, 24.331218 ], [ -110.87534, 25.85832 ] ] ] } },
{ "type": "Feature", "properties": { "frame_id": 5121, "is_land": 1, "is_north_america": true, "orbit_pass": "ASCENDING", "num_burst_ids": 21, "num_dates": 138, "region_name": "Baja California Sur" }, "geometry": { "type": "Polygon", "coordinates": [ [ [ -111.162247, 27.190189 ], [ -108.67809, 27.720256 ], [ -108.380949, 26.186163 ], [ -110.83324, 25.663486 ], [ -111.162247, 27.190189 ] ] ] } },
{ "type": "Feature", "properties": { "frame_id": 5122, "is_land": 1, "is_north_america": true, "orbit_pass": "ASCENDING", "num_burst_ids": 27, "num_dates": 138, "region_name": "Chihuahua" }, "geometry": { "type": "Polygon", "coordinates": [ [ [ -111.451763, 28.521644 ], [ -108.936189, 29.049249 ], [ -108.638168, 27.515487 ], [ -111.119739, 26.995365 ], [ -111.451763, 28.521644 ] ] ] } },
{ "type": "Feature", "properties": { "frame_id": 5123, "is_land": 1, "is_north_america": true, "orbit_pass": "ASCENDING", "num_burst_ids": 27, "num_dates": 138, "region_name": "Sonora" }, "geometry": { "type": "Polygon", "coordinates": [ [ [ -111.744191, 29.85266 ], [ -109.194979, 30.377918 ], [ -108.896128, 28.844465 ], [ -111.408804, 28.326832 ], [ -111.744191, 29.85266 ] ] ] } },
{ "type": "Feature", "properties": { "frame_id": 5124, "is_land": 1, "is_north_america": true, "orbit_pass": "ASCENDING", "num_burst_ids": 27, "num_dates": 215, "region_name": "Arizona" }, "geometry": { "type": "Polygon", "coordinates": [ [ [ -112.039932, 31.183198 ], [ -109.454723, 31.706235 ], [ -109.154747, 30.173119 ], [ -111.700733, 29.65786 ], [ -112.039932, 31.183198 ] ] ] } },
{ "type": "Feature", "properties": { "frame_id": 5125, "is_land": 1, "is_north_america": true, "orbit_pass": "ASCENDING", "num_burst_ids": 27, "num_dates": 215, "region_name": "Arizona" }, "geometry": { "type": "Polygon", "coordinates": [ [ [ -112.342678, 32.512674 ], [ -109.715696, 33.034176 ], [ -109.414285, 31.501422 ], [ -111.999057, 30.987909 ], [ -112.342678, 32.512674 ] ] ] } },
{ "type": "Feature", "properties": { "frame_id": 5126, "is_land": 1, "is_north_america": true, "orbit_pass": "ASCENDING", "num_burst_ids": 27, "num_dates": 135, "region_name": "Arizona" }, "geometry": { "type": "Polygon", "coordinates": [ [ [ -112.646335, 33.842154 ], [ -109.980334, 34.361409 ], [ -109.677067, 32.829074 ], [ -112.298065, 32.317936 ], [ -112.646335, 33.842154 ] ] ] } },
{ "type": "Feature", "properties": { "frame_id": 5127, "is_land": 1, "is_north_america": true, "orbit_pass": "ASCENDING", "num_burst_ids": 27, "num_dates": 135, "region_name": "Arizona" }, "geometry": { "type": "Polygon", "coordinates": [ [ [ -112.954359, 35.171094 ], [ -110.245364, 35.68843 ], [ -109.939373, 34.156596 ], [ -112.601059, 33.647436 ], [ -112.954359, 35.171094 ] ] ] } },
{ "type": "Feature", "properties": { "frame_id": 7090, "is_land": 1, "is_north_america": true, "orbit_pass": "DESCENDING", "num_burst_ids": 27, "num_dates": 221, "region_name": "Arizona" }, "geometry": { "type": "Polygon", "coordinates": [ [ [ -113.02285, 33.786369 ], [ -112.718069, 35.318328 ], [ -109.966344, 35.03124 ], [ -110.319184, 33.507606 ], [ -113.02285, 33.786369 ] ] ] } },
{ "type": "Feature", "properties": { "frame_id": 7091, "is_land": 1, "is_north_america": true, "orbit_pass": "DESCENDING", "num_burst_ids": 27, "num_dates": 221, "region_name": "Arizona" }, "geometry": { "type": "Polygon", "coordinates": [ [ [ -113.284762, 32.458828 ], [ -112.981956, 33.991192 ], [ -110.273959, 33.702343 ], [ -110.621738, 32.178137 ], [ -113.284762, 32.458828 ] ] ] } },
{ "type": "Feature", "properties": { "frame_id": 7092, "is_land": 1, "is_north_america": true, "orbit_pass": "DESCENDING", "num_burst_ids": 27, "num_dates": 247, "region_name": "Arizona" }, "geometry": { "type": "Polygon", "coordinates": [ [ [ -113.54531, 31.130897 ], [ -113.244138, 32.66364 ], [ -110.57717, 32.372893 ], [ -110.920348, 30.848143 ], [ -113.54531, 31.130897 ] ] ] } },
{ "type": "Feature", "properties": { "frame_id": 7093, "is_land": 1, "is_north_america": true, "orbit_pass": "DESCENDING", "num_burst_ids": 24, "num_dates": 251, "region_name": "Sonora" }, "geometry": { "type": "Polygon", "coordinates": [ [ [ -113.804722, 29.802595 ], [ -113.504918, 31.335698 ], [ -110.876379, 31.042917 ], [ -111.215461, 29.517663 ], [ -113.804722, 29.802595 ] ] ] } },
{ "type": "Feature", "properties": { "frame_id": 7094, "is_land": 1, "is_north_america": true, "orbit_pass": "DESCENDING", "num_burst_ids": 25, "num_dates": 222, "region_name": "Baja California" }, "geometry": { "type": "Polygon", "coordinates": [ [ [ -114.06338, 28.473961 ], [ -113.764526, 30.007382 ], [ -111.172037, 29.712452 ], [ -111.507339, 28.186707 ], [ -114.06338, 28.473961 ] ] ] } },
{ "type": "Feature", "properties": { "frame_id": 7095, "is_land": 1, "is_north_america": true, "orbit_pass": "DESCENDING", "num_burst_ids": 23, "num_dates": 222, "region_name": "Baja California" }, "geometry": { "type": "Polygon", "coordinates": [ [ [ -114.321151, 27.144967 ], [ -114.023348, 28.678735 ], [ -111.464409, 28.38151 ], [ -111.796378, 26.855315 ], [ -114.321151, 27.144967 ] ] ] } },
{ "type": "Feature", "properties": { "frame_id": 7096, "is_land": 1, "is_north_america": true, "orbit_pass": "DESCENDING", "num_burst_ids": 18, "num_dates": 219, "region_name": "Baja California Sur" }, "geometry": { "type": "Polygon", "coordinates": [ [ [ -114.5784, 25.815655 ], [ -114.28125, 27.349725 ], [ -111.753896, 27.05013 ], [ -112.082877, 25.52351 ], [ -114.5784, 25.815655 ] ] ] } },
{ "type": "Feature", "properties": { "frame_id": 7097, "is_land": 1, "is_north_america": true, "orbit_pass": "DESCENDING", "num_burst_ids": 6, "num_dates": 215, "region_name": "Baja California Sur" }, "geometry": { "type": "Polygon", "coordinates": [ [ [ -114.835312, 24.486046 ], [ -114.538599, 26.020396 ], [ -112.040797, 25.718337 ], [ -112.367115, 24.191319 ], [ -114.835312, 24.486046 ] ] ] } },
{ "type": "Feature", "properties": { "frame_id": 8622, "is_land": 1, "is_north_america": true, "orbit_pass": "ASCENDING", "num_burst_ids": 25, "num_dates": 241, "region_name": "NYC" }, "geometry": { "type": "Polygon", "coordinates": [ [ [ -75.369628, 41.30259 ], [ -72.418041, 41.813897 ], [ -72.098732, 40.284157 ], [ -74.985129, 39.782085 ], [ -75.369628, 41.30259 ] ] ] } },
{ "type": "Feature", "properties": { "frame_id": 8881, "is_land": 1, "is_north_america": true, "orbit_pass": "ASCENDING", "num_burst_ids": 10, "num_dates": 238, "region_name": "Texas" }, "geometry": { "type": "Polygon", "coordinates": [ [ [ -97.091882, 28.691691 ], [ -94.571106, 29.219191 ], [ -94.272942, 27.685525 ], [ -96.759378, 27.165531 ], [ -97.091882, 28.691691 ] ] ] } },
{ "type": "Feature", "properties": { "frame_id": 8882, "is_land": 1, "is_north_america": true, "orbit_pass": "ASCENDING", "num_burst_ids": 27, "num_dates": 237, "region_name": "Texas" }, "geometry": { "type": "Polygon", "coordinates": [ [ [ -97.384771, 30.022592 ], [ -94.830048, 30.547764 ], [ -94.531022, 29.01441 ], [ -97.048856, 28.496886 ], [ -97.384771, 30.022592 ] ] ] } },
{ "type": "Feature", "properties": { "frame_id": 8883, "is_land": 1, "is_north_america": true, "orbit_pass": "ASCENDING", "num_burst_ids": 27, "num_dates": 237, "region_name": "Texas" }, "geometry": { "type": "Polygon", "coordinates": [ [ [ -97.681018, 31.353012 ], [ -95.089971, 31.875983 ], [ -94.789787, 30.342968 ], [ -97.341239, 29.8278 ], [ -97.681018, 31.353012 ] ] ] } },
{ "type": "Feature", "properties": { "frame_id": 8884, "is_land": 1, "is_north_america": true, "orbit_pass": "ASCENDING", "num_burst_ids": 27, "num_dates": 235, "region_name": "Texas" }, "geometry": { "type": "Polygon", "coordinates": [ [ [ -97.980975, 32.682926 ], [ -95.351154, 33.203822 ], [ -95.0495, 31.671173 ], [ -97.63693, 31.158235 ], [ -97.980975, 32.682926 ] ] ] } },
{ "type": "Feature", "properties": { "frame_id": 8885, "is_land": 1, "is_north_america": true, "orbit_pass": "ASCENDING", "num_burst_ids": 27, "num_dates": 242, "region_name": "Oklahoma" }, "geometry": { "type": "Polygon", "coordinates": [ [ [ -98.28859, 34.011722 ], [ -95.614547, 34.531164 ], [ -95.310436, 32.999 ], [ -97.936275, 32.488166 ], [ -98.28859, 34.011722 ] ] ] } },
{ "type": "Feature", "properties": { "frame_id": 8886, "is_land": 1, "is_north_america": true, "orbit_pass": "ASCENDING", "num_burst_ids": 27, "num_dates": 242, "region_name": "Oklahoma" }, "geometry": { "type": "Polygon", "coordinates": [ [ [ -98.597276, 35.340534 ], [ -95.881349, 35.857869 ], [ -95.573544, 34.326339 ], [ -98.243218, 33.817013 ], [ -98.597276, 35.340534 ] ] ] } },
{ "type": "Feature", "properties": { "frame_id": 8888, "is_land": 1, "is_north_america": true, "orbit_pass": "ASCENDING", "num_burst_ids": 27, "num_dates": 240, "region_name": "Oklahoma" }, "geometry": { "type": "Polygon", "coordinates": [ [ [ -99.230062, 37.996367 ], [ -96.417142, 38.510577 ], [ -96.106385, 36.979628 ], [ -98.863997, 36.4741 ], [ -99.230062, 37.996367 ] ] ] } },
{ "type": "Feature", "properties": { "frame_id": 8889, "is_land": 1, "is_north_america": true, "orbit_pass": "ASCENDING", "num_burst_ids": 27, "num_dates": 239, "region_name": "Kansas" }, "geometry": { "type": "Polygon", "coordinates": [ [ [ -99.555175, 39.323334 ], [ -96.688892, 39.836248 ], [ -96.375021, 38.305757 ], [ -99.182268, 37.801733 ], [ -99.555175, 39.323334 ] ] ] } },
{ "type": "Feature", "properties": { "frame_id": 9154, "is_land": 1, "is_north_america": true, "orbit_pass": "ASCENDING", "num_burst_ids": 7, "num_dates": 300, "region_name": "Southern California" }, "geometry": { "type": "Polygon", "coordinates": [ [ [ -123.125326, 34.685068 ], [ -120.43328, 35.202953 ], [ -120.128079, 33.670956 ], [ -122.773987, 33.161178 ], [ -123.125326, 34.685068 ] ] ] } },
{ "type": "Feature", "properties": { "frame_id": 9155, "is_land": 1, "is_north_america": true, "orbit_pass": "ASCENDING", "num_burst_ids": 12, "num_dates": 303, "region_name": "Northern California" }, "geometry": { "type": "Polygon", "coordinates": [ [ [ -123.436353, 36.01365 ], [ -120.698919, 36.529797 ], [ -120.392116, 34.998133 ], [ -123.079591, 34.490352 ], [ -123.436353, 36.01365 ] ] ] } },
{ "type": "Feature", "properties": { "frame_id": 9156, "is_land": 1, "is_north_america": true, "orbit_pass": "ASCENDING", "num_burst_ids": 18, "num_dates": 307, "region_name": "Northern California" }, "geometry": { "type": "Polygon", "coordinates": [ [ [ -123.75265, 37.341622 ], [ -120.966725, 37.856206 ], [ -120.657406, 36.32497 ], [ -123.389848, 35.818957 ], [ -123.75265, 37.341622 ] ] ] } },
{ "type": "Feature", "properties": { "frame_id": 9157, "is_land": 1, "is_north_america": true, "orbit_pass": "ASCENDING", "num_burst_ids": 23, "num_dates": 300, "region_name": "Northern California" }, "geometry": { "type": "Polygon", "coordinates": [ [ [ -124.074637, 38.668969 ], [ -121.237064, 39.182159 ], [ -120.924817, 37.651373 ], [ -123.705302, 37.146954 ], [ -124.074637, 38.668969 ] ] ] } },
{ "type": "Feature", "properties": { "frame_id": 9158, "is_land": 1, "is_north_america": true, "orbit_pass": "ASCENDING", "num_burst_ids": 27, "num_dates": 300, "region_name": "Northern California" }, "geometry": { "type": "Polygon", "coordinates": [ [ [ -124.402867, 39.995664 ], [ -121.511044, 40.507543 ], [ -121.194711, 38.977321 ], [ -124.026367, 38.47433 ], [ -124.402867, 39.995664 ] ] ] } },
{ "type": "Feature", "properties": { "frame_id": 10854, "is_land": 1, "is_north_america": true, "orbit_pass": "DESCENDING", "num_burst_ids": 12, "num_dates": 239, "region_name": "Texas" }, "geometry": { "type": "Polygon", "coordinates": [ [ [ -99.954283, 26.974577 ], [ -99.656648, 28.508402 ], [ -97.102083, 28.21097 ], [ -97.433548, 26.684694 ], [ -99.954283, 26.974577 ] ] ] } },
{ "type": "Feature", "properties": { "frame_id": 10855, "is_land": 1, "is_north_america": true, "orbit_pass": "DESCENDING", "num_burst_ids": 27, "num_dates": 239, "region_name": "Texas" }, "geometry": { "type": "Polygon", "coordinates": [ [ [ -100.211415, 25.645214 ], [ -99.914404, 27.179337 ], [ -97.391128, 26.879516 ], [ -97.71965, 25.35282 ], [ -100.211415, 25.645214 ] ] ] } },
{ "type": "Feature", "properties": { "frame_id": 10856, "is_land": 1, "is_north_america": true, "orbit_pass": "DESCENDING", "num_burst_ids": 27, "num_dates": 239, "region_name": "Coahuila" }, "geometry": { "type": "Polygon", "coordinates": [ [ [ -100.468236, 24.315557 ], [ -100.171633, 25.849956 ], [ -97.677628, 25.547652 ], [ -98.003529, 24.020563 ], [ -100.468236, 24.315557 ] ] ] } },
{ "type": "Feature", "properties": { "frame_id": 11115, "is_land": 1, "is_north_america": true, "orbit_pass": "DESCENDING", "num_burst_ids": 27, "num_dates": 312, "region_name": "Northern California" }, "geometry": { "type": "Polygon", "coordinates": [ [ [ -122.68045, 36.926455 ], [ -122.369757, 38.457397 ], [ -119.502762, 38.173828 ], [ -119.86972, 36.651668 ], [ -122.68045, 36.926455 ] ] ] } },
{ "type": "Feature", "properties": { "frame_id": 11116, "is_land": 1, "is_north_america": true, "orbit_pass": "DESCENDING", "num_burst_ids": 23, "num_dates": 322, "region_name": "Northern California" }, "geometry": { "type": "Polygon", "coordinates": [ [ [ -122.946711, 35.599897 ], [ -122.638753, 37.131282 ], [ -119.822681, 36.846337 ], [ -120.183408, 35.323551 ], [ -122.946711, 35.599897 ] ] ] } },
{ "type": "Feature", "properties": { "frame_id": 11117, "is_land": 1, "is_north_america": true, "orbit_pass": "DESCENDING", "num_burst_ids": 8, "num_dates": 316, "region_name": "Southern California" }, "geometry": { "type": "Polygon", "coordinates": [ [ [ -123.2116, 34.272991 ], [ -122.905384, 35.804717 ], [ -120.137183, 35.518246 ], [ -120.492067, 33.994835 ], [ -123.2116, 34.272991 ] ] ] } },
{ "type": "Feature", "properties": { "frame_id": 12907, "is_land": 1, "is_north_america": true, "orbit_pass": "ASCENDING", "num_burst_ids": 27, "num_dates": 225, "region_name": "Chihuahua" }, "geometry": { "type": "Polygon", "coordinates": [ [ [ -106.978662, 26.871287 ], [ -104.501686, 27.401935 ], [ -104.204732, 25.86778 ], [ -106.650404, 25.344487 ], [ -106.978662, 26.871287 ] ] ] } },
{ "type": "Feature", "properties": { "frame_id": 12908, "is_land": 1, "is_north_america": true, "orbit_pass": "ASCENDING", "num_burst_ids": 24, "num_dates": 375, "region_name": "Chihuahua" }, "geometry": { "type": "Polygon", "coordinates": [ [ [ -107.270099, 28.202373 ], [ -104.759406, 28.731022 ], [ -104.461796, 27.197166 ], [ -106.936257, 26.676456 ], [ -107.270099, 28.202373 ] ] ] } },
{ "type": "Feature", "properties": { "frame_id": 12909, "is_land": 1, "is_north_america": true, "orbit_pass": "ASCENDING", "num_burst_ids": 27, "num_dates": 152, "region_name": "Chihuahua" }, "geometry": { "type": "Polygon", "coordinates": [ [ [ -107.561993, 29.533451 ], [ -105.019806, 30.059476 ], [ -104.719384, 28.526235 ], [ -107.227254, 28.007577 ], [ -107.561993, 29.533451 ] ] ] } },
{ "type": "Feature", "properties": { "frame_id": 12910, "is_land": 1, "is_north_america": true, "orbit_pass": "ASCENDING", "num_burst_ids": 27, "num_dates": 153, "region_name": "Texas" }, "geometry": { "type": "Polygon", "coordinates": [ [ [ -107.857048, 30.864071 ], [ -105.279433, 31.387846 ], [ -104.97962, 29.854695 ], [ -107.518661, 29.338669 ], [ -107.857048, 30.864071 ] ] ] } },
{ "type": "Feature", "properties": { "frame_id": 12911, "is_land": 1, "is_north_america": true, "orbit_pass": "ASCENDING", "num_burst_ids": 27, "num_dates": 153, "region_name": "Texas" }, "geometry": { "type": "Polygon", "coordinates": [ [ [ -108.155683, 32.194194 ], [ -105.540182, 32.715853 ], [ -105.239049, 31.183053 ], [ -107.813178, 30.669304 ], [ -108.155683, 32.194194 ] ] ] } },
{ "type": "Feature", "properties": { "frame_id": 12912, "is_land": 1, "is_north_america": true, "orbit_pass": "ASCENDING", "num_burst_ids": 27, "num_dates": 153, "region_name": "New Mexico" }, "geometry": { "type": "Polygon", "coordinates": [ [ [ -108.458268, 33.523795 ], [ -105.80234, 34.043469 ], [ -105.499565, 32.511048 ], [ -108.111222, 31.999445 ], [ -108.458268, 33.523795 ] ] ] } },
{ "type": "Feature", "properties": { "frame_id": 12913, "is_land": 1, "is_north_america": true, "orbit_pass": "ASCENDING", "num_burst_ids": 27, "num_dates": 153, "region_name": "New Mexico" }, "geometry": { "type": "Polygon", "coordinates": [ [ [ -108.765118, 34.852863 ], [ -106.066875, 35.370579 ], [ -105.761452, 33.838653 ], [ -108.413159, 33.329065 ], [ -108.765118, 34.852863 ] ] ] } },
{ "type": "Feature", "properties": { "frame_id": 14877, "is_land": 1, "is_north_america": true, "orbit_pass": "DESCENDING", "num_burst_ids": 27, "num_dates": 247, "region_name": "Arizona" }, "geometry": { "type": "Polygon", "coordinates": [ [ [ -109.107458, 32.776027 ], [ -108.804212, 34.308291 ], [ -106.085645, 34.019836 ], [ -106.434616, 32.495775 ], [ -109.107458, 32.776027 ] ] ] } },
{ "type": "Feature", "properties": { "frame_id": 14878, "is_land": 1, "is_north_america": true, "orbit_pass": "DESCENDING", "num_burst_ids": 27, "num_dates": 244, "region_name": "New Mexico" }, "geometry": { "type": "Polygon", "coordinates": [ [ [ -109.368323, 31.448191 ], [ -109.066776, 32.980838 ], [ -106.3899, 32.69052 ], [ -106.734161, 31.165908 ], [ -109.368323, 31.448191 ] ] ] } },
{ "type": "Feature", "properties": { "frame_id": 14879, "is_land": 1, "is_north_america": true, "orbit_pass": "DESCENDING", "num_burst_ids": 27, "num_dates": 244, "region_name": "Arizona" }, "geometry": { "type": "Polygon", "coordinates": [ [ [ -109.627998, 30.119977 ], [ -109.327882, 31.652989 ], [ -106.690057, 31.360671 ], [ -107.030123, 29.835549 ], [ -109.627998, 30.119977 ] ] ] } },
{ "type": "Feature", "properties": { "frame_id": 14880, "is_land": 1, "is_north_america": true, "orbit_pass": "DESCENDING", "num_burst_ids": 27, "num_dates": 244, "region_name": "Chihuahua" }, "geometry": { "type": "Polygon", "coordinates": [ [ [ -109.88687, 28.791429 ], [ -109.587762, 30.324763 ], [ -106.986577, 30.030329 ], [ -107.322769, 28.504709 ], [ -109.88687, 28.791429 ] ] ] } },
{ "type": "Feature", "properties": { "frame_id": 14881, "is_land": 1, "is_north_america": true, "orbit_pass": "DESCENDING", "num_burst_ids": 27, "num_dates": 248, "region_name": "Chihuahua" }, "geometry": { "type": "Polygon", "coordinates": [ [ [ -110.144805, 27.462516 ], [ -109.846804, 28.996203 ], [ -107.279729, 28.699503 ], [ -107.614979, 27.173842 ], [ -110.144805, 27.462516 ] ] ] } },
{ "type": "Feature", "properties": { "frame_id": 14882, "is_land": 1, "is_north_america": true, "orbit_pass": "DESCENDING", "num_burst_ids": 24, "num_dates": 248, "region_name": "Sonora" }, "geometry": { "type": "Polygon", "coordinates": [ [ [ -110.403541, 26.133488 ], [ -110.104878, 27.667274 ], [ -107.572396, 27.368673 ], [ -107.901841, 25.842103 ], [ -110.403541, 26.133488 ] ] ] } },
{ "type": "Feature", "properties": { "frame_id": 14883, "is_land": 1, "is_north_america": true, "orbit_pass": "DESCENDING", "num_burst_ids": 15, "num_dates": 248, "region_name": "Baja California Sur" }, "geometry": { "type": "Polygon", "coordinates": [ [ [ -110.660404, 24.803936 ], [ -110.363722, 26.338246 ], [ -107.859672, 26.036944 ], [ -108.186384, 24.509972 ], [ -110.660404, 24.803936 ] ] ] } },
{ "type": "Feature", "properties": { "frame_id": 14884, "is_land": 1, "is_north_america": true, "orbit_pass": "DESCENDING", "num_burst_ids": 15, "num_dates": 248, "region_name": "Baja California Sur" }, "geometry": { "type": "Polygon", "coordinates": [ [ [ -110.917071, 23.474104 ], [ -110.620663, 25.008674 ], [ -108.144585, 24.704822 ], [ -108.468875, 23.177473 ], [ -110.917071, 23.474104 ] ] ] } },
{ "type": "Feature", "properties": { "frame_id": 16668, "is_land": 1, "is_north_america": true, "orbit_pass": "ASCENDING", "num_burst_ids": 15, "num_dates": 233, "region_name": "Louisiana" }, "geometry": { "type": "Polygon", "coordinates": [ [ [ -93.202376, 29.705444 ], [ -90.653223, 30.231604 ], [ -90.354326, 28.69819 ], [ -92.864453, 28.180121 ], [ -93.202376, 29.705444 ] ] ] } },
{ "type": "Feature", "properties": { "frame_id": 16669, "is_land": 1, "is_north_america": true, "orbit_pass": "ASCENDING", "num_burst_ids": 27, "num_dates": 239, "region_name": "Louisiana" }, "geometry": { "type": "Polygon", "coordinates": [ [ [ -93.497936, 31.035957 ], [ -90.914738, 31.559627 ], [ -90.613009, 30.026807 ], [ -93.158971, 29.510669 ], [ -93.497936, 31.035957 ] ] ] } },
{ "type": "Feature", "properties": { "frame_id": 16670, "is_land": 1, "is_north_america": true, "orbit_pass": "ASCENDING", "num_burst_ids": 27, "num_dates": 237, "region_name": "Louisiana" }, "geometry": { "type": "Polygon", "coordinates": [ [ [ -93.797126, 32.36597 ], [ -91.1757, 32.887543 ], [ -90.874322, 31.354837 ], [ -93.453986, 30.841198 ], [ -93.797126, 32.36597 ] ] ] } },
{ "type": "Feature", "properties": { "frame_id": 16671, "is_land": 1, "is_north_america": true, "orbit_pass": "ASCENDING", "num_burst_ids": 27, "num_dates": 237, "region_name": "Louisiana" }, "geometry": { "type": "Polygon", "coordinates": [ [ [ -94.100317, 33.695457 ], [ -91.438104, 34.215068 ], [ -91.135046, 32.682742 ], [ -93.752578, 32.171229 ], [ -94.100317, 33.695457 ] ] ] } },
{ "type": "Feature", "properties": { "frame_id": 16672, "is_land": 1, "is_north_america": true, "orbit_pass": "ASCENDING", "num_burst_ids": 27, "num_dates": 237, "region_name": "Texas" }, "geometry": { "type": "Polygon", "coordinates": [ [ [ -94.407829, 35.024406 ], [ -91.702921, 35.542083 ], [ -91.397173, 34.010256 ], [ -94.055112, 33.500736 ], [ -94.407829, 35.024406 ] ] ] } },
{ "type": "Feature", "properties": { "frame_id": 16673, "is_land": 1, "is_north_america": true, "orbit_pass": "ASCENDING", "num_burst_ids": 27, "num_dates": 237, "region_name": "Oklahoma" }, "geometry": { "type": "Polygon", "coordinates": [ [ [ -94.720176, 36.352779 ], [ -91.969101, 36.868761 ], [ -91.661674, 35.33727 ], [ -94.361904, 34.829707 ], [ -94.720176, 36.352779 ] ] ] } },
{ "type": "Feature", "properties": { "frame_id": 16674, "is_land": 1, "is_north_america": true, "orbit_pass": "ASCENDING", "num_burst_ids": 27, "num_dates": 241, "region_name": "Kansas" }, "geometry": { "type": "Polygon", "coordinates": [ [ [ -95.03792, 37.680535 ], [ -92.237525, 38.195001 ], [ -91.927494, 36.663941 ], [ -94.673464, 36.158103 ], [ -95.03792, 37.680535 ] ] ] } },
{ "type": "Feature", "properties": { "frame_id": 16675, "is_land": 1, "is_north_america": true, "orbit_pass": "ASCENDING", "num_burst_ids": 27, "num_dates": 232, "region_name": "Kansas" }, "geometry": { "type": "Polygon", "coordinates": [ [ [ -95.361492, 39.00766 ], [ -92.508564, 39.52078 ], [ -92.19551, 37.990175 ], [ -94.990345, 37.485886 ], [ -95.361492, 39.00766 ] ] ] } },
{ "type": "Feature", "properties": { "frame_id": 16936, "is_land": 1, "is_north_america": true, "orbit_pass": "ASCENDING", "num_burst_ids": 1, "num_dates": 126, "region_name": "Baja California" }, "geometry": { "type": "Polygon", "coordinates": [ [ [ -117.73855, 29.048288 ], [ -115.209556, 29.57501 ], [ -114.911135, 28.041382 ], [ -117.40512, 27.522207 ], [ -117.73855, 29.048288 ] ] ] } },
{ "type": "Feature", "properties": { "frame_id": 16937, "is_land": 1, "is_north_america": true, "orbit_pass": "ASCENDING", "num_burst_ids": 9, "num_dates": 126, "region_name": "Baja California" }, "geometry": { "type": "Polygon", "coordinates": [ [ [ -118.032337, 30.37911 ], [ -115.468777, 30.903536 ], [ -115.169431, 29.370227 ], [ -117.695397, 28.853491 ], [ -118.032337, 30.37911 ] ] ] } },
{ "type": "Feature", "properties": { "frame_id": 16939, "is_land": 1, "is_north_america": true, "orbit_pass": "ASCENDING", "num_burst_ids": 12, "num_dates": 318, "region_name": "Baja California" }, "geometry": { "type": "Polygon", "coordinates": [ [ [ -118.630627, 33.039263 ], [ -115.990624, 33.559488 ], [ -115.688509, 32.026895 ], [ -118.285335, 31.514676 ], [ -118.630627, 33.039263 ] ] ] } },
{ "type": "Feature", "properties": { "frame_id": 16940, "is_land": 1, "is_north_america": true, "orbit_pass": "ASCENDING", "num_burst_ids": 27, "num_dates": 318, "region_name": "Southern California" }, "geometry": { "type": "Polygon", "coordinates": [ [ [ -118.935791, 34.368557 ], [ -116.254488, 34.88677 ], [ -115.949837, 33.354667 ], [ -118.585758, 32.844513 ], [ -118.935791, 34.368557 ] ] ] } },
{ "type": "Feature", "properties": { "frame_id": 18904, "is_land": 1, "is_north_america": true, "orbit_pass": "DESCENDING", "num_burst_ids": 26, "num_dates": 315, "region_name": "Southern California" }, "geometry": { "type": "Polygon", "coordinates": [ [ [ -119.296851, 33.261703 ], [ -118.99286, 34.793814 ], [ -116.257917, 34.50592 ], [ -116.612254, 32.982625 ], [ -119.296851, 33.261703 ] ] ] } },
{ "type": "Feature", "properties": { "frame_id": 18905, "is_land": 1, "is_north_america": true, "orbit_pass": "DESCENDING", "num_burst_ids": 14, "num_dates": 324, "region_name": "Baja California" }, "geometry": { "type": "Polygon", "coordinates": [ [ [ -119.560173, 31.93427 ], [ -119.256072, 33.466509 ], [ -116.5673, 33.177384 ], [ -116.91309, 31.652929 ], [ -119.560173, 31.93427 ] ] ] } },
{ "type": "Feature", "properties": { "frame_id": 18907, "is_land": 1, "is_north_america": true, "orbit_pass": "DESCENDING", "num_burst_ids": 2, "num_dates": 302, "region_name": "Baja California" }, "geometry": { "type": "Polygon", "coordinates": [ [ [ -120.079332, 29.277755 ], [ -119.779856, 30.810983 ], [ -117.16639, 30.51751 ], [ -117.503822, 28.99203 ], [ -120.079332, 29.277755 ] ] ] } },
{ "type": "Feature", "properties": { "frame_id": 18908, "is_land": 1, "is_north_america": true, "orbit_pass": "DESCENDING", "num_burst_ids": 5, "num_dates": 302, "region_name": "Baja California" }, "geometry": { "type": "Polygon", "coordinates": [ [ [ -120.337379, 27.948942 ], [ -120.039208, 29.482547 ], [ -117.460603, 29.186836 ], [ -117.794407, 27.660878 ], [ -120.337379, 27.948942 ] ] ] } },
{ "type": "Feature", "properties": { "frame_id": 20692, "is_land": 1, "is_north_america": true, "orbit_pass": "ASCENDING", "num_burst_ids": 27, "num_dates": 223, "region_name": "Coahuila" }, "geometry": { "type": "Polygon", "coordinates": [ [ [ -102.512179, 25.222644 ], [ -100.070032, 25.756616 ], [ -99.772275, 24.222354 ], [ -102.187006, 23.695412 ], [ -102.512179, 25.222644 ] ] ] } },
{ "type": "Feature", "properties": { "frame_id": 20693, "is_land": 1, "is_north_america": true, "orbit_pass": "ASCENDING", "num_burst_ids": 27, "num_dates": 223, "region_name": "Coahuila" }, "geometry": { "type": "Polygon", "coordinates": [ [ [ -102.798053, 26.55465 ], [ -100.327174, 27.086066 ], [ -100.030265, 25.551883 ], [ -102.47026, 25.027817 ], [ -102.798053, 26.55465 ] ] ] } },
{ "type": "Feature", "properties": { "frame_id": 20694, "is_land": 1, "is_north_america": true, "orbit_pass": "ASCENDING", "num_burst_ids": 27, "num_dates": 223, "region_name": "Coahuila" }, "geometry": { "type": "Polygon", "coordinates": [ [ [ -103.086401, 27.886253 ], [ -100.584829, 28.415202 ], [ -100.287313, 26.881314 ], [ -102.755747, 26.359834 ], [ -103.086401, 27.886253 ] ] ] } },
{ "type": "Feature", "properties": { "frame_id": 20695, "is_land": 1, "is_north_america": true, "orbit_pass": "ASCENDING", "num_burst_ids": 27, "num_dates": 371, "region_name": "Chihuahua" }, "geometry": { "type": "Polygon", "coordinates": [ [ [ -103.377518, 29.21743 ], [ -100.843359, 29.74398 ], [ -100.544843, 28.210434 ], [ -103.043666, 27.691449 ], [ -103.377518, 29.21743 ] ] ] } },
{ "type": "Feature", "properties": { "frame_id": 20696, "is_land": 1, "is_north_america": true, "orbit_pass": "ASCENDING", "num_burst_ids": 18, "num_dates": 365, "region_name": "Chihuahua" }, "geometry": { "type": "Polygon", "coordinates": [ [ [ -103.671715, 30.548154 ], [ -101.102689, 31.072424 ], [ -100.803217, 29.539198 ], [ -103.334307, 29.022639 ], [ -103.671715, 30.548154 ] ] ] } },
{ "type": "Feature", "properties": { "frame_id": 20697, "is_land": 1, "is_north_america": true, "orbit_pass": "ASCENDING", "num_burst_ids": 27, "num_dates": 233, "region_name": "Texas" }, "geometry": { "type": "Polygon", "coordinates": [ [ [ -103.969408, 31.878387 ], [ -101.363087, 32.400508 ], [ -101.062358, 30.867629 ], [ -103.627979, 30.353377 ], [ -103.969408, 31.878387 ] ] ] } },
{ "type": "Feature", "properties": { "frame_id": 20698, "is_land": 1, "is_north_america": true, "orbit_pass": "ASCENDING", "num_burst_ids": 27, "num_dates": 218, "region_name": "New Mexico" }, "geometry": { "type": "Polygon", "coordinates": [ [ [ -104.270958, 33.208105 ], [ -101.624835, 33.728206 ], [ -101.322531, 32.1957 ], [ -103.925094, 31.683627 ], [ -104.270958, 33.208105 ] ] ] } },
{ "type": "Feature", "properties": { "frame_id": 20699, "is_land": 1, "is_north_america": true, "orbit_pass": "ASCENDING", "num_burst_ids": 27, "num_dates": 218, "region_name": "New Mexico" }, "geometry": { "type": "Polygon", "coordinates": [ [ [ -104.576673, 34.537294 ], [ -101.888897, 35.055401 ], [ -101.584018, 33.523387 ], [ -104.22601, 33.013363 ], [ -104.576673, 34.537294 ] ] ] } },
{ "type": "Feature", "properties": { "frame_id": 20700, "is_land": 1, "is_north_america": true, "orbit_pass": "ASCENDING", "num_burst_ids": 27, "num_dates": 216, "region_name": "New Mexico" }, "geometry": { "type": "Polygon", "coordinates": [ [ [ -104.887055, 35.865917 ], [ -102.154222, 36.382263 ], [ -101.847779, 34.85058 ], [ -104.531029, 34.342572 ], [ -104.887055, 35.865917 ] ] ] } },
{ "type": "Feature", "properties": { "frame_id": 20701, "is_land": 1, "is_north_america": true, "orbit_pass": "ASCENDING", "num_burst_ids": 27, "num_dates": 214, "region_name": "Oklahoma" }, "geometry": { "type": "Polygon", "coordinates": [ [ [ -105.202648, 37.193933 ], [ -102.421679, 37.708694 ], [ -102.11276, 36.177435 ], [ -104.840649, 35.671217 ], [ -105.202648, 37.193933 ] ] ] } },
{ "type": "Feature", "properties": { "frame_id": 20702, "is_land": 1, "is_north_america": true, "orbit_pass": "ASCENDING", "num_burst_ids": 27, "num_dates": 207, "region_name": "Colorado" }, "geometry": { "type": "Polygon", "coordinates": [ [ [ -105.523869, 38.521328 ], [ -102.69163, 39.034669 ], [ -102.379828, 37.503858 ], [ -105.155409, 36.999258 ], [ -105.523869, 38.521328 ] ] ] } },
{ "type": "Feature", "properties": { "frame_id": 22660, "is_land": 1, "is_north_america": true, "orbit_pass": "DESCENDING", "num_burst_ids": 27, "num_dates": 224, "region_name": "Oklahoma" }, "geometry": { "type": "Polygon", "coordinates": [ [ [ -104.13655, 37.072047 ], [ -103.825597, 38.602935 ], [ -100.952411, 38.319527 ], [ -101.32006, 36.797446 ], [ -104.13655, 37.072047 ] ] ] } },
{ "type": "Feature", "properties": { "frame_id": 22661, "is_land": 1, "is_north_america": true, "orbit_pass": "DESCENDING", "num_burst_ids": 27, "num_dates": 224, "region_name": "Kansas" }, "geometry": { "type": "Polygon", "coordinates": [ [ [ -104.403002, 35.745541 ], [ -104.094819, 37.276873 ], [ -101.272934, 36.99211 ], [ -101.634289, 35.469399 ], [ -104.403002, 35.745541 ] ] ] } },
{ "type": "Feature", "properties": { "frame_id": 22662, "is_land": 1, "is_north_america": true, "orbit_pass": "DESCENDING", "num_burst_ids": 27, "num_dates": 227, "region_name": "New Mexico" }, "geometry": { "type": "Polygon", "coordinates": [ [ [ -104.668052, 34.418685 ], [ -104.361645, 35.95036 ], [ -101.587986, 35.664089 ], [ -101.943439, 34.140751 ], [ -104.668052, 34.418685 ] ] ] } },
{ "type": "Feature", "properties": { "frame_id": 22663, "is_land": 1, "is_north_america": true, "orbit_pass": "DESCENDING", "num_burst_ids": 27, "num_dates": 227, "region_name": "New Mexico" }, "geometry": { "type": "Polygon", "coordinates": [ [ [ -104.930707, 33.091332 ], [ -104.627025, 34.623503 ], [ -101.897889, 34.335464 ], [ -102.248046, 32.811541 ], [ -104.930707, 33.091332 ] ] ] } },
{ "type": "Feature", "properties": { "frame_id": 22664, "is_land": 1, "is_north_america": true, "orbit_pass": "DESCENDING", "num_burst_ids": 27, "num_dates": 227, "region_name": "New Mexico" }, "geometry": { "type": "Polygon", "coordinates": [ [ [ -105.191883, 31.763582 ], [ -104.889968, 33.29614 ], [ -102.203182, 33.006275 ], [ -102.548522, 31.481794 ], [ -105.191883, 31.763582 ] ] ] } },
{ "type": "Feature", "properties": { "frame_id": 22665, "is_land": 1, "is_north_america": true, "orbit_pass": "DESCENDING", "num_burst_ids": 27, "num_dates": 226, "region_name": "Chihuahua" }, "geometry": { "type": "Polygon", "coordinates": [ [ [ -105.451817, 30.435451 ], [ -105.151395, 31.968379 ], [ -102.507517, 31.677093 ], [ -102.848276, 30.152027 ], [ -105.451817, 30.435451 ] ] ] } },
{ "type": "Feature", "properties": { "frame_id": 22666, "is_land": 1, "is_north_america": true, "orbit_pass": "DESCENDING", "num_burst_ids": 27, "num_dates": 226, "region_name": "Coahuila" }, "geometry": { "type": "Polygon", "coordinates": [ [ [ -105.712586, 29.107225 ], [ -105.413311, 30.640506 ], [ -102.804608, 30.346825 ], [ -103.141487, 28.821271 ], [ -105.712586, 29.107225 ] ] ] } },
{ "type": "Feature", "properties": { "frame_id": 22667, "is_land": 1, "is_north_america": true, "orbit_pass": "DESCENDING", "num_burst_ids": 27, "num_dates": 227, "region_name": "Chihuahua" }, "geometry": { "type": "Polygon", "coordinates": [ [ [ -105.970492, 27.778365 ], [ -105.672488, 29.312019 ], [ -103.098337, 29.016082 ], [ -103.431639, 27.490053 ], [ -105.970492, 27.778365 ] ] ] } },
{ "type": "Feature", "properties": { "frame_id": 22668, "is_land": 1, "is_north_america": true, "orbit_pass": "DESCENDING", "num_burst_ids": 27, "num_dates": 211, "region_name": "Chihuahua" }, "geometry": { "type": "Polygon", "coordinates": [ [ [ -106.227843, 26.449187 ], [ -105.93054, 27.983142 ], [ -103.388957, 27.684876 ], [ -103.719116, 26.158411 ], [ -106.227843, 26.449187 ] ] ] } },
{ "type": "Feature", "properties": { "frame_id": 22669, "is_land": 1, "is_north_america": true, "orbit_pass": "DESCENDING", "num_burst_ids": 27, "num_dates": 242, "region_name": "Chihuahua" }, "geometry": { "type": "Polygon", "coordinates": [ [ [ -106.484775, 25.119702 ], [ -106.188006, 26.653946 ], [ -103.676858, 26.353245 ], [ -104.004206, 24.826371 ], [ -106.484775, 25.119702 ] ] ] } },
{ "type": "Feature", "properties": { "frame_id": 24455, "is_land": 1, "is_north_america": true, "orbit_pass": "ASCENDING", "num_burst_ids": 18, "num_dates": 233, "region_name": "Louisiana" }, "geometry": { "type": "Polygon", "coordinates": [ [ [ -89.312157, 30.720193 ], [ -86.737887, 31.244315 ], [ -86.438218, 29.711164 ], [ -88.974199, 29.194775 ], [ -89.312157, 30.720193 ] ] ] } },
{ "type": "Feature", "properties": { "frame_id": 24722, "is_land": 1, "is_north_america": true, "orbit_pass": "ASCENDING", "num_burst_ids": 24, "num_dates": 84, "region_name": "Baja California Sur" }, "geometry": { "type": "Polygon", "coordinates": [ [ [ -113.553626, 28.732157 ], [ -111.032716, 29.259357 ], [ -110.73458, 27.725644 ], [ -113.221087, 27.205952 ], [ -113.553626, 28.732157 ] ] ] } },
{ "type": "Feature", "properties": { "frame_id": 24723, "is_land": 1, "is_north_america": true, "orbit_pass": "ASCENDING", "num_burst_ids": 12, "num_dates": 203, "region_name": "Baja California" }, "geometry": { "type": "Polygon", "coordinates": [ [ [ -113.846555, 30.0631 ], [ -111.291639, 30.587972 ], [ -110.992635, 29.054572 ], [ -113.510596, 28.53735 ], [ -113.846555, 30.0631 ] ] ] } },
{ "type": "Feature", "properties": { "frame_id": 24724, "is_land": 1, "is_north_america": true, "orbit_pass": "ASCENDING", "num_burst_ids": 23, "num_dates": 203, "region_name": "Arizona" }, "geometry": { "type": "Polygon", "coordinates": [ [ [ -114.142852, 31.393561 ], [ -111.551549, 31.916234 ], [ -111.251381, 30.383173 ], [ -113.803018, 29.868306 ], [ -114.142852, 31.393561 ] ] ] } },
{ "type": "Feature", "properties": { "frame_id": 24725, "is_land": 1, "is_north_america": true, "orbit_pass": "ASCENDING", "num_burst_ids": 27, "num_dates": 205, "region_name": "Arizona" }, "geometry": { "type": "Polygon", "coordinates": [ [ [ -114.442868, 32.723514 ], [ -111.812723, 33.244115 ], [ -111.51108, 31.711421 ], [ -114.098757, 31.198782 ], [ -114.442868, 32.723514 ] ] ] } },
{ "type": "Feature", "properties": { "frame_id": 24726, "is_land": 1, "is_north_america": true, "orbit_pass": "ASCENDING", "num_burst_ids": 27, "num_dates": 86, "region_name": "Arizona" }, "geometry": { "type": "Polygon", "coordinates": [ [ [ -114.746901, 34.052949 ], [ -112.076115, 34.571498 ], [ -111.772007, 33.03929 ], [ -114.39816, 32.528752 ], [ -114.746901, 34.052949 ] ] ] } },
{ "type": "Feature", "properties": { "frame_id": 24727, "is_land": 1, "is_north_america": true, "orbit_pass": "ASCENDING", "num_burst_ids": 27, "num_dates": 86, "region_name": "Southern California" }, "geometry": { "type": "Polygon", "coordinates": [ [ [ -115.059321, 35.3812 ], [ -112.342921, 35.898244 ], [ -112.035112, 34.36667 ], [ -114.705171, 33.857639 ], [ -115.059321, 35.3812 ] ] ] } },
{ "type": "Feature", "properties": { "frame_id": 24728, "is_land": 1, "is_north_america": true, "orbit_pass": "ASCENDING", "num_burst_ids": 27, "num_dates": 78, "region_name": "Southern California" }, "geometry": { "type": "Polygon", "coordinates": [ [ [ -115.373049, 36.709466 ], [ -112.609671, 37.224859 ], [ -112.30159, 35.693432 ], [ -115.013202, 35.186512 ], [ -115.373049, 36.709466 ] ] ] } },
{ "type": "Feature", "properties": { "frame_id": 26689, "is_land": 1, "is_north_america": true, "orbit_pass": "DESCENDING", "num_burst_ids": 27, "num_dates": 239, "region_name": "Arizona" }, "geometry": { "type": "Polygon", "coordinates": [ [ [ -114.858805, 34.903271 ], [ -114.551645, 36.434812 ], [ -111.761651, 36.149276 ], [ -112.119132, 34.626142 ], [ -114.858805, 34.903271 ] ] ] } },
{ "type": "Feature", "properties": { "frame_id": 26690, "is_land": 1, "is_north_america": true, "orbit_pass": "DESCENDING", "num_burst_ids": 27, "num_dates": 238, "region_name": "Arizona" }, "geometry": { "type": "Polygon", "coordinates": [ [ [ -115.122042, 33.576071 ], [ -114.817661, 35.108106 ], [ -112.073312, 34.820867 ], [ -112.425233, 33.297125 ], [ -115.122042, 33.576071 ] ] ] } },
{ "type": "Feature", "properties": { "frame_id": 26691, "is_land": 1, "is_north_america": true, "orbit_pass": "DESCENDING", "num_burst_ids": 27, "num_dates": 238, "region_name": "Arizona" }, "geometry": { "type": "Polygon", "coordinates": [ [ [ -115.383655, 32.24846 ], [ -115.0812, 33.780897 ], [ -112.380122, 33.491871 ], [ -112.72706, 31.967561 ], [ -115.383655, 32.24846 ] ] ] } },
{ "type": "Feature", "properties": { "frame_id": 26692, "is_land": 1, "is_north_america": true, "orbit_pass": "DESCENDING", "num_burst_ids": 24, "num_dates": 240, "region_name": "Arizona" }, "geometry": { "type": "Polygon", "coordinates": [ [ [ -115.643943, 30.920463 ], [ -115.343076, 32.453276 ], [ -112.682596, 32.162326 ], [ -113.025005, 30.637478 ], [ -115.643943, 30.920463 ] ] ] } },
{ "type": "Feature", "properties": { "frame_id": 26693, "is_land": 1, "is_north_america": true, "orbit_pass": "DESCENDING", "num_burst_ids": 22, "num_dates": 239, "region_name": "Sonora" }, "geometry": { "type": "Polygon", "coordinates": [ [ [ -115.903358, 29.592128 ], [ -115.603591, 31.125266 ], [ -112.981132, 30.832259 ], [ -113.319512, 29.306911 ], [ -115.903358, 29.592128 ] ] ] } },
{ "type": "Feature", "properties": { "frame_id": 26694, "is_land": 1, "is_north_america": true, "orbit_pass": "DESCENDING", "num_burst_ids": 20, "num_dates": 235, "region_name": "Baja California" }, "geometry": { "type": "Polygon", "coordinates": [ [ [ -116.161601, 28.2634 ], [ -115.863197, 29.796919 ], [ -113.276175, 29.501707 ], [ -113.610837, 27.975873 ], [ -116.161601, 28.2634 ] ] ] } },
{ "type": "Feature", "properties": { "frame_id": 26695, "is_land": 1, "is_north_america": true, "orbit_pass": "DESCENDING", "num_burst_ids": 14, "num_dates": 235, "region_name": "Baja California" }, "geometry": { "type": "Polygon", "coordinates": [ [ [ -116.419217, 26.934347 ], [ -116.121598, 28.468176 ], [ -113.567987, 28.170682 ], [ -113.899375, 26.644402 ], [ -116.419217, 26.934347 ] ] ] } },
{ "type": "Feature", "properties": { "frame_id": 28479, "is_land": 1, "is_north_america": true, "orbit_pass": "ASCENDING", "num_burst_ids": 18, "num_dates": 227, "region_name": "Texas" }, "geometry": { "type": "Polygon", "coordinates": [ [ [ -98.615986, 26.240589 ], [ -96.152027, 26.772598 ], [ -95.855257, 25.238355 ], [ -98.288873, 24.713663 ], [ -98.615986, 26.240589 ] ] ] } },
{ "type": "Feature", "properties": { "frame_id": 28480, "is_land": 1, "is_north_america": true, "orbit_pass": "ASCENDING", "num_burst_ids": 20, "num_dates": 233, "region_name": "Texas" }, "geometry": { "type": "Polygon", "coordinates": [ [ [ -98.903671, 27.572286 ], [ -96.409515, 28.101801 ], [ -96.11219, 26.567848 ], [ -98.573775, 26.045766 ], [ -98.903671, 27.572286 ] ] ] } },
{ "type": "Feature", "properties": { "frame_id": 28481, "is_land": 1, "is_north_america": true, "orbit_pass": "ASCENDING", "num_burst_ids": 27, "num_dates": 233, "region_name": "Texas" }, "geometry": { "type": "Polygon", "coordinates": [ [ [ -99.194051, 28.903561 ], [ -96.667831, 29.43065 ], [ -96.369561, 27.897033 ], [ -98.86104, 27.377474 ], [ -99.194051, 28.903561 ] ] ] } },
{ "type": "Feature", "properties": { "frame_id": 28482, "is_land": 1, "is_north_america": true, "orbit_pass": "ASCENDING", "num_burst_ids": 27, "num_dates": 232, "region_name": "Texas" }, "geometry": { "type": "Polygon", "coordinates": [ [ [ -99.487434, 30.23439 ], [ -96.926897, 30.759169 ], [ -96.627728, 29.225868 ], [ -99.150955, 28.708761 ], [ -99.487434, 30.23439 ] ] ] } },
{ "type": "Feature", "properties": { "frame_id": 28483, "is_land": 1, "is_north_america": true, "orbit_pass": "ASCENDING", "num_burst_ids": 27, "num_dates": 237, "region_name": "Texas" }, "geometry": { "type": "Polygon", "coordinates": [ [ [ -99.78423, 31.564733 ], [ -97.186978, 32.087332 ], [ -96.886613, 30.554373 ], [ -99.443825, 30.039604 ], [ -99.78423, 31.564733 ] ] ] } },
{ "type": "Feature", "properties": { "frame_id": 28484, "is_land": 1, "is_north_america": true, "orbit_pass": "ASCENDING", "num_burst_ids": 27, "num_dates": 235, "region_name": "Texas" }, "geometry": { "type": "Polygon", "coordinates": [ [ [ -100.084793, 32.894567 ], [ -97.448355, 33.415112 ], [ -97.146478, 31.882522 ], [ -99.740055, 31.369963 ], [ -100.084793, 32.894567 ] ] ] } },
{ "type": "Feature", "properties": { "frame_id": 28485, "is_land": 1, "is_north_america": true, "orbit_pass": "ASCENDING", "num_burst_ids": 27, "num_dates": 234, "region_name": "Oklahoma" }, "geometry": { "type": "Polygon", "coordinates": [ [ [ -100.389425, 34.223879 ], [ -97.711982, 34.742393 ], [ -97.407602, 33.210291 ], [ -100.039998, 32.699814 ], [ -100.389425, 34.223879 ] ] ] } },
{ "type": "Feature", "properties": { "frame_id": 28486, "is_land": 1, "is_north_america": true, "orbit_pass": "ASCENDING", "num_burst_ids": 27, "num_dates": 233, "region_name": "Oklahoma" }, "geometry": { "type": "Polygon", "coordinates": [ [ [ -100.69862, 35.552629 ], [ -97.976811, 36.069345 ], [ -97.670938, 34.537569 ], [ -100.343949, 34.029144 ], [ -100.69862, 35.552629 ] ] ] } },
{ "type": "Feature", "properties": { "frame_id": 28487, "is_land": 1, "is_north_america": true, "orbit_pass": "ASCENDING", "num_burst_ids": 27, "num_dates": 233, "region_name": "Kansas" }, "geometry": { "type": "Polygon", "coordinates": [ [ [ -101.016958, 36.880139 ], [ -98.243703, 37.395869 ], [ -97.935434, 35.864513 ], [ -100.652398, 35.357916 ], [ -101.016958, 36.880139 ] ] ] } },
{ "type": "Feature", "properties": { "frame_id": 28488, "is_land": 1, "is_north_america": true, "orbit_pass": "ASCENDING", "num_burst_ids": 27, "num_dates": 231, "region_name": "Kansas" }, "geometry": { "type": "Polygon", "coordinates": [ [ [ -101.337003, 38.207647 ], [ -98.515539, 38.721611 ], [ -98.201948, 37.191029 ], [ -100.969918, 36.685486 ], [ -101.337003, 38.207647 ] ] ] } },
{ "type": "Feature", "properties": { "frame_id": 28757, "is_land": 1, "is_north_america": true, "orbit_pass": "ASCENDING", "num_burst_ids": 6, "num_dates": 224, "region_name": "Northern California" }, "geometry": { "type": "Polygon", "coordinates": [ [ [ -126.182485, 38.880479 ], [ -123.336035, 39.393456 ], [ -123.023328, 37.862744 ], [ -125.812069, 37.358576 ], [ -126.182485, 38.880479 ] ] ] } },
{ "type": "Feature", "properties": { "frame_id": 30452, "is_land": 1, "is_north_america": true, "orbit_pass": "DESCENDING", "num_burst_ids": 6, "num_dates": 244, "region_name": "Coahuila" }, "geometry": { "type": "Polygon", "coordinates": [ [ [ -101.537066, 29.420207 ], [ -101.237517, 30.953406 ], [ -98.620048, 30.660212 ], [ -98.95784, 29.134778 ], [ -101.537066, 29.420207 ] ] ] } },
{ "type": "Feature", "properties": { "frame_id": 30453, "is_land": 1, "is_north_america": true, "orbit_pass": "DESCENDING", "num_burst_ids": 27, "num_dates": 244, "region_name": "Coahuila" }, "geometry": { "type": "Polygon", "coordinates": [ [ [ -101.795152, 28.091424 ], [ -101.496933, 29.625001 ], [ -98.914576, 29.329581 ], [ -99.248701, 27.803665 ], [ -101.795152, 28.091424 ] ] ] } },
{ "type": "Feature", "properties": { "frame_id": 30454, "is_land": 1, "is_north_america": true, "orbit_pass": "DESCENDING", "num_burst_ids": 27, "num_dates": 243, "region_name": "Coahuila" }, "geometry": { "type": "Polygon", "coordinates": [ [ [ -102.052639, 26.762318 ], [ -101.755173, 28.296201 ], [ -99.205918, 27.998481 ], [ -99.536817, 26.472122 ], [ -102.052639, 26.762318 ] ] ] } },
{ "type": "Feature", "properties": { "frame_id": 30455, "is_land": 1, "is_north_america": true, "orbit_pass": "DESCENDING", "num_burst_ids": 27, "num_dates": 243, "region_name": "Coahuila" }, "geometry": { "type": "Polygon", "coordinates": [ [ [ -102.30966, 25.432901 ], [ -102.012781, 26.967078 ], [ -99.494468, 26.66695 ], [ -99.822479, 25.140176 ], [ -102.30966, 25.432901 ] ] ] } },
{ "type": "Feature", "properties": { "frame_id": 30456, "is_land": 1, "is_north_america": true, "orbit_pass": "DESCENDING", "num_burst_ids": 27, "num_dates": 243, "region_name": "Coahuila" }, "geometry": { "type": "Polygon", "coordinates": [ [ [ -102.5664, 24.103194 ], [ -102.269894, 25.637643 ], [ -99.78052, 25.335014 ], [ -100.105962, 23.807851 ], [ -102.5664, 24.103194 ] ] ] } },
{ "type": "Feature", "properties": { "frame_id": 30714, "is_land": 1, "is_north_america": true, "orbit_pass": "DESCENDING", "num_burst_ids": 23, "num_dates": 254, "region_name": "Northern California" }, "geometry": { "type": "Polygon", "coordinates": [ [ [ -124.512842, 38.03998 ], [ -124.199639, 39.57055 ], [ -121.287599, 39.288113 ], [ -121.660327, 37.766508 ], [ -124.512842, 38.03998 ] ] ] } },
{ "type": "Feature", "properties": { "frame_id": 30715, "is_land": 1, "is_north_america": true, "orbit_pass": "DESCENDING", "num_burst_ids": 10, "num_dates": 252, "region_name": "Northern California" }, "geometry": { "type": "Polygon", "coordinates": [ [ [ -124.780971, 36.713789 ], [ -124.470804, 38.244816 ], [ -121.612551, 37.961161 ], [ -121.978369, 36.438878 ], [ -124.780971, 36.713789 ] ] ] } },
{ "type": "Feature", "properties": { "frame_id": 30716, "is_land": 1, "is_north_america": true, "orbit_pass": "DESCENDING", "num_burst_ids": 1, "num_dates": 252, "region_name": "Northern California" }, "geometry": { "type": "Polygon", "coordinates": [ [ [ -125.046832, 35.387153 ], [ -124.739343, 36.91862 ], [ -121.931471, 36.633559 ], [ -122.291154, 35.110654 ], [ -125.046832, 35.387153 ] ] ] } },
{ "type": "Feature", "properties": { "frame_id": 32506, "is_land": 1, "is_north_america": true, "orbit_pass": "ASCENDING", "num_burst_ids": 27, "num_dates": 131, "region_name": "Chihuahua" }, "geometry": { "type": "Polygon", "coordinates": [ [ [ -108.794437, 25.754032 ], [ -106.341947, 26.286786 ], [ -106.045387, 24.752392 ], [ -108.468382, 24.226902 ], [ -108.794437, 25.754032 ] ] ] } },
{ "type": "Feature", "properties": { "frame_id": 32507, "is_land": 1, "is_north_america": true, "orbit_pass": "ASCENDING", "num_burst_ids": 27, "num_dates": 130, "region_name": "Chihuahua" }, "geometry": { "type": "Polygon", "coordinates": [ [ [ -109.08109, 27.08593 ], [ -106.599182, 27.616146 ], [ -106.302148, 26.082034 ], [ -108.752372, 25.559195 ], [ -109.08109, 27.08593 ] ] ] } },
{ "type": "Feature", "properties": { "frame_id": 32508, "is_land": 1, "is_north_america": true, "orbit_pass": "ASCENDING", "num_burst_ids": 27, "num_dates": 129, "region_name": "Chihuahua" }, "geometry": { "type": "Polygon", "coordinates": [ [ [ -109.370329, 28.417416 ], [ -106.857172, 28.94516 ], [ -106.559277, 27.411376 ], [ -109.038622, 26.891103 ], [ -109.370329, 28.417416 ] ] ] } },
{ "type": "Feature", "properties": { "frame_id": 32509, "is_land": 1, "is_north_america": true, "orbit_pass": "ASCENDING", "num_burst_ids": 27, "num_dates": 126, "region_name": "Chihuahua" }, "geometry": { "type": "Polygon", "coordinates": [ [ [ -109.662453, 29.748464 ], [ -107.115836, 30.27385 ], [ -106.816961, 28.740399 ], [ -109.327413, 28.2226 ], [ -109.662453, 29.748464 ] ] ] } },
{ "type": "Feature", "properties": { "frame_id": 32510, "is_land": 1, "is_north_america": true, "orbit_pass": "ASCENDING", "num_burst_ids": 27, "num_dates": 126, "region_name": "Chihuahua" }, "geometry": { "type": "Polygon", "coordinates": [ [ [ -109.960992, 31.078504 ], [ -107.375434, 31.602191 ], [ -107.075624, 30.06905 ], [ -109.62197, 29.553182 ], [ -109.960992, 31.078504 ] ] ] } },
{ "type": "Feature", "properties": { "frame_id": 32511, "is_land": 1, "is_north_america": true, "orbit_pass": "ASCENDING", "num_burst_ids": 27, "num_dates": 127, "region_name": "Arizona" }, "geometry": { "type": "Polygon", "coordinates": [ [ [ -110.260242, 32.408549 ], [ -107.638291, 32.929858 ], [ -107.336923, 31.397115 ], [ -109.917035, 30.883744 ], [ -110.260242, 32.408549 ] ] ] } },
{ "type": "Feature", "properties": { "frame_id": 32512, "is_land": 1, "is_north_america": true, "orbit_pass": "ASCENDING", "num_burst_ids": 27, "num_dates": 129, "region_name": "Arizona" }, "geometry": { "type": "Polygon", "coordinates": [ [ [ -110.563505, 33.738068 ], [ -107.900692, 34.257416 ], [ -107.597638, 32.725053 ], [ -110.215685, 32.213807 ], [ -110.563505, 33.738068 ] ] ] } },
{ "type": "Feature", "properties": { "frame_id": 34477, "is_land": 1, "is_north_america": true, "orbit_pass": "DESCENDING", "num_burst_ids": 27, "num_dates": 248, "region_name": "New Mexico" }, "geometry": { "type": "Polygon", "coordinates": [ [ [ -111.207114, 32.561461 ], [ -110.904206, 34.093795 ], [ -108.192784, 33.805124 ], [ -108.540911, 32.280962 ], [ -111.207114, 32.561461 ] ] ] } },
{ "type": "Feature", "properties": { "frame_id": 34478, "is_land": 1, "is_north_america": true, "orbit_pass": "DESCENDING", "num_burst_ids": 27, "num_dates": 248, "region_name": "Sonora" }, "geometry": { "type": "Polygon", "coordinates": [ [ [ -111.467731, 31.233559 ], [ -111.166476, 32.766273 ], [ -108.496299, 32.475715 ], [ -108.839791, 30.951007 ], [ -111.467731, 31.233559 ] ] ] } },
{ "type": "Feature", "properties": { "frame_id": 34479, "is_land": 1, "is_north_america": true, "orbit_pass": "DESCENDING", "num_burst_ids": 27, "num_dates": 248, "region_name": "Sonora" }, "geometry": { "type": "Polygon", "coordinates": [ [ [ -111.727195, 29.905282 ], [ -111.427328, 31.438359 ], [ -108.795783, 31.145778 ], [ -109.135148, 29.620563 ], [ -111.727195, 29.905282 ] ] ] } },
{ "type": "Feature", "properties": { "frame_id": 34480, "is_land": 1, "is_north_america": true, "orbit_pass": "DESCENDING", "num_burst_ids": 27, "num_dates": 248, "region_name": "Sonora" }, "geometry": { "type": "Polygon", "coordinates": [ [ [ -111.98589, 28.576674 ], [ -111.686991, 30.11007 ], [ -109.091688, 29.81535 ], [ -109.427244, 28.289643 ], [ -111.98589, 28.576674 ] ] ] } },
{ "type": "Feature", "properties": { "frame_id": 34481, "is_land": 1, "is_north_america": true, "orbit_pass": "DESCENDING", "num_burst_ids": 24, "num_dates": 249, "region_name": "Sonora" }, "geometry": { "type": "Polygon", "coordinates": [ [ [ -112.243684, 27.247703 ], [ -111.945852, 28.781449 ], [ -109.384283, 28.484443 ], [ -109.716479, 26.958283 ], [ -112.243684, 27.247703 ] ] ] } },
{ "type": "Feature", "properties": { "frame_id": 34483, "is_land": 1, "is_north_america": true, "orbit_pass": "DESCENDING", "num_burst_ids": 26, "num_dates": 249, "region_name": "Baja California Sur" }, "geometry": { "type": "Polygon", "coordinates": [ [ [ -112.757848, 24.588826 ], [ -112.461138, 26.123156 ], [ -109.961046, 25.821334 ], [ -110.289505, 24.294687 ], [ -112.757848, 24.588826 ] ] ] } },
{ "type": "Feature", "properties": { "frame_id": 34484, "is_land": 1, "is_north_america": true, "orbit_pass": "DESCENDING", "num_burst_ids": 10, "num_dates": 243, "region_name": "Baja California Sur" }, "geometry": { "type": "Polygon", "coordinates": [ [ [ -113.015708, 23.259138 ], [ -112.718119, 24.793548 ], [ -110.247764, 24.489542 ], [ -110.571636, 22.962123 ], [ -113.015708, 23.259138 ] ] ] } },
{ "type": "Feature", "properties": { "frame_id": 36268, "is_land": 1, "is_north_america": true, "orbit_pass": "ASCENDING", "num_burst_ids": 16, "num_dates": 218, "region_name": "Texas" }, "geometry": { "type": "Polygon", "coordinates": [ [ [ -95.303978, 29.921581 ], [ -92.751892, 30.446887 ], [ -92.452986, 28.913508 ], [ -94.96838, 28.395838 ], [ -95.303978, 29.921581 ] ] ] } },
{ "type": "Feature", "properties": { "frame_id": 36269, "is_land": 1, "is_north_america": true, "orbit_pass": "ASCENDING", "num_burst_ids": 27, "num_dates": 218, "region_name": "Texas" }, "geometry": { "type": "Polygon", "coordinates": [ [ [ -95.599921, 31.252037 ], [ -93.011694, 31.775131 ], [ -92.71165, 30.24209 ], [ -95.26049, 29.726786 ], [ -95.599921, 31.252037 ] ] ] } },
{ "type": "Feature", "properties": { "frame_id": 36270, "is_land": 1, "is_north_america": true, "orbit_pass": "ASCENDING", "num_burst_ids": 27, "num_dates": 217, "region_name": "Texas" }, "geometry": { "type": "Polygon", "coordinates": [ [ [ -95.902893, 32.581429 ], [ -93.272736, 33.102997 ], [ -92.971243, 31.57032 ], [ -95.55588, 31.057256 ], [ -95.902893, 32.581429 ] ] ] } },
{ "type": "Feature", "properties": { "frame_id": 36271, "is_land": 1, "is_north_america": true, "orbit_pass": "ASCENDING", "num_burst_ids": 27, "num_dates": 222, "region_name": "Oklahoma" }, "geometry": { "type": "Polygon", "coordinates": [ [ [ -96.206793, 33.910824 ], [ -93.537459, 34.430155 ], [ -93.232042, 32.898174 ], [ -95.858244, 32.386696 ], [ -96.206793, 33.910824 ] ] ] } },
{ "type": "Feature", "properties": { "frame_id": 36272, "is_land": 1, "is_north_america": true, "orbit_pass": "ASCENDING", "num_burst_ids": 27, "num_dates": 218, "region_name": "Texas" }, "geometry": { "type": "Polygon", "coordinates": [ [ [ -96.515081, 35.239677 ], [ -93.802586, 35.7571 ], [ -93.496482, 34.225345 ], [ -96.161477, 33.716111 ], [ -96.515081, 35.239677 ] ] ] } },
{ "type": "Feature", "properties": { "frame_id": 36273, "is_land": 1, "is_north_america": true, "orbit_pass": "ASCENDING", "num_burst_ids": 27, "num_dates": 219, "region_name": "Oklahoma" }, "geometry": { "type": "Polygon", "coordinates": [ [ [ -96.828281, 36.567949 ], [ -94.069121, 37.083705 ], [ -93.761286, 35.552289 ], [ -96.469035, 35.044986 ], [ -96.828281, 36.567949 ] ] ] } },
{ "type": "Feature", "properties": { "frame_id": 36274, "is_land": 1, "is_north_america": true, "orbit_pass": "ASCENDING", "num_burst_ids": 27, "num_dates": 218, "region_name": "Oklahoma" }, "geometry": { "type": "Polygon", "coordinates": [ [ [ -97.146959, 37.895599 ], [ -94.337948, 38.40987 ], [ -94.027453, 36.878888 ], [ -96.781435, 36.373282 ], [ -97.146959, 37.895599 ] ] ] } },
{ "type": "Feature", "properties": { "frame_id": 36275, "is_land": 1, "is_north_america": true, "orbit_pass": "ASCENDING", "num_burst_ids": 27, "num_dates": 218, "region_name": "Kansas" }, "geometry": { "type": "Polygon", "coordinates": [ [ [ -97.471555, 39.222614 ], [ -94.609442, 39.735572 ], [ -94.295864, 38.205047 ], [ -97.099238, 37.70096 ], [ -97.471555, 39.222614 ] ] ] } },
{ "type": "Feature", "properties": { "frame_id": 36539, "is_land": 1, "is_north_america": true, "orbit_pass": "ASCENDING", "num_burst_ids": 7, "num_dates": 333, "region_name": "Southern California" }, "geometry": { "type": "Polygon", "coordinates": [ [ [ -120.737139, 33.254974 ], [ -118.090208, 33.774925 ], [ -117.787798, 32.242402 ], [ -120.391061, 31.730488 ], [ -120.737139, 33.254974 ] ] ] } },
{ "type": "Feature", "properties": { "frame_id": 36540, "is_land": 1, "is_north_america": true, "orbit_pass": "ASCENDING", "num_burst_ids": 19, "num_dates": 348, "region_name": "Southern California" }, "geometry": { "type": "Polygon", "coordinates": [ [ [ -121.043057, 34.584171 ], [ -118.354373, 35.102135 ], [ -118.049376, 33.570106 ], [ -120.692162, 33.060233 ], [ -121.043057, 34.584171 ] ] ] } },
{ "type": "Feature", "properties": { "frame_id": 36541, "is_land": 1, "is_north_america": true, "orbit_pass": "ASCENDING", "num_burst_ids": 27, "num_dates": 349, "region_name": "Southern California" }, "geometry": { "type": "Polygon", "coordinates": [ [ [ -121.353661, 35.912799 ], [ -118.619812, 36.429011 ], [ -118.313238, 34.897314 ], [ -120.997383, 34.38945 ], [ -121.353661, 35.912799 ] ] ] } },
{ "type": "Feature", "properties": { "frame_id": 36542, "is_land": 1, "is_north_america": true, "orbit_pass": "ASCENDING", "num_burst_ids": 27, "num_dates": 343, "region_name": "Southern California" }, "geometry": { "type": "Polygon", "coordinates": [ [ [ -121.669495, 37.240818 ], [ -118.887394, 37.755454 ], [ -118.578332, 36.224182 ], [ -121.307222, 35.7181 ], [ -121.669495, 37.240818 ] ] ] } },
{ "type": "Feature", "properties": { "frame_id": 38238, "is_land": 1, "is_north_america": true, "orbit_pass": "DESCENDING", "num_burst_ids": 21, "num_dates": 413, "region_name": "Texas" }, "geometry": { "type": "Polygon", "coordinates": [ [ [ -97.361105, 29.732012 ], [ -97.06146, 31.265152 ], [ -94.435054, 30.972381 ], [ -94.773818, 29.447077 ], [ -97.361105, 29.732012 ] ] ] } },
{ "type": "Feature", "properties": { "frame_id": 38239, "is_land": 1, "is_north_america": true, "orbit_pass": "DESCENDING", "num_burst_ids": 12, "num_dates": 413, "region_name": "Texas" }, "geometry": { "type": "Polygon", "coordinates": [ [ [ -97.619641, 28.403346 ], [ -97.32093, 29.936801 ], [ -94.730433, 29.641871 ], [ -95.06544, 28.116079 ], [ -97.619641, 28.403346 ] ] ] } },
{ "type": "Feature", "properties": { "frame_id": 38241, "is_land": 1, "is_north_america": true, "orbit_pass": "DESCENDING", "num_burst_ids": 12, "num_dates": 242, "region_name": "Texas" }, "geometry": { "type": "Polygon", "coordinates": [ [ [ -98.134454, 25.744979 ], [ -97.837418, 27.27908 ], [ -95.311795, 26.979464 ], [ -95.640523, 25.452801 ], [ -98.134454, 25.744979 ] ] ] } },
{ "type": "Feature", "properties": { "frame_id": 38242, "is_land": 1, "is_north_america": true, "orbit_pass": "DESCENDING", "num_burst_ids": 14, "num_dates": 237, "region_name": "Texas" }, "geometry": { "type": "Polygon", "coordinates": [ [ [ -98.39128, 24.415342 ], [ -98.094668, 25.949721 ], [ -95.598475, 25.647631 ], [ -95.924559, 24.120572 ], [ -98.39128, 24.415342 ] ] ] } },
{ "type": "Feature", "properties": { "frame_id": 38503, "is_land": 1, "is_north_america": true, "orbit_pass": "DESCENDING", "num_burst_ids": 27, "num_dates": 326, "region_name": "Southern California" }, "geometry": { "type": "Polygon", "coordinates": [ [ [ -121.134114, 34.373186 ], [ -120.827744, 35.904876 ], [ -118.055825, 35.618526 ], [ -118.411125, 34.095168 ], [ -121.134114, 34.373186 ] ] ] } },
{ "type": "Feature", "properties": { "frame_id": 38504, "is_land": 1, "is_north_america": true, "orbit_pass": "DESCENDING", "num_burst_ids": 14, "num_dates": 325, "region_name": "Southern California" }, "geometry": { "type": "Polygon", "coordinates": [ [ [ -121.396745, 33.045819 ], [ -121.093092, 34.578004 ], [ -118.365594, 34.289883 ], [ -118.715614, 32.76594 ], [ -121.396745, 33.045819 ] ] ] } },
{ "type": "Feature", "properties": { "frame_id": 40292, "is_land": 1, "is_north_america": true, "orbit_pass": "ASCENDING", "num_burst_ids": 27, "num_dates": 235, "region_name": "Coahuila" }, "geometry": { "type": "Polygon", "coordinates": [ [ [ -104.613608, 25.440209 ], [ -102.167666, 25.973612 ], [ -101.871194, 24.439169 ], [ -104.288167, 23.912996 ], [ -104.613608, 25.440209 ] ] ] } },
{ "type": "Feature", "properties": { "frame_id": 40293, "is_land": 1, "is_north_america": true, "orbit_pass": "ASCENDING", "num_burst_ids": 27, "num_dates": 231, "region_name": "Coahuila" }, "geometry": { "type": "Polygon", "coordinates": [ [ [ -104.902042, 26.771764 ], [ -102.42478, 27.303031 ], [ -102.127884, 25.768863 ], [ -104.571627, 25.245366 ], [ -104.902042, 26.771764 ] ] ] } },
{ "type": "Feature", "properties": { "frame_id": 40294, "is_land": 1, "is_north_america": true, "orbit_pass": "ASCENDING", "num_burst_ids": 27, "num_dates": 231, "region_name": "Chihuahua" }, "geometry": { "type": "Polygon", "coordinates": [ [ [ -105.19087, 28.103298 ], [ -102.684055, 28.631877 ], [ -102.384899, 27.098262 ], [ -104.859669, 26.576953 ], [ -105.19087, 28.103298 ] ] ] } },
{ "type": "Feature", "properties": { "frame_id": 40295, "is_land": 1, "is_north_america": true, "orbit_pass": "ASCENDING", "num_burst_ids": 18, "num_dates": 358, "region_name": "Chihuahua" }, "geometry": { "type": "Polygon", "coordinates": [ [ [ -105.482518, 29.434401 ], [ -102.94275, 29.960602 ], [ -102.644045, 28.42711 ], [ -105.14806, 27.9085 ], [ -105.482518, 29.434401 ] ] ] } },
{ "type": "Feature", "properties": { "frame_id": 40296, "is_land": 1, "is_north_america": true, "orbit_pass": "ASCENDING", "num_burst_ids": 27, "num_dates": 210, "region_name": "Chihuahua" }, "geometry": { "type": "Polygon", "coordinates": [ [ [ -105.7773, 30.765048 ], [ -103.202279, 31.28899 ], [ -102.902578, 29.755821 ], [ -105.439224, 29.239617 ], [ -105.7773, 30.765048 ] ] ] } },
{ "type": "Feature", "properties": { "frame_id": 40297, "is_land": 1, "is_north_america": true, "orbit_pass": "ASCENDING", "num_burst_ids": 27, "num_dates": 210, "region_name": "Chihuahua" }, "geometry": { "type": "Polygon", "coordinates": [ [ [ -106.075637, 32.0952 ], [ -103.462913, 32.617015 ], [ -103.161912, 31.084196 ], [ -105.733472, 30.570279 ], [ -106.075637, 32.0952 ] ] ] } },
{ "type": "Feature", "properties": { "frame_id": 40298, "is_land": 1, "is_north_america": true, "orbit_pass": "ASCENDING", "num_burst_ids": 27, "num_dates": 198, "region_name": "New Mexico" }, "geometry": { "type": "Polygon", "coordinates": [ [ [ -106.377894, 33.424832 ], [ -103.724937, 33.944651 ], [ -103.422316, 32.412209 ], [ -106.031222, 31.900447 ], [ -106.377894, 33.424832 ] ] ] } },
{ "type": "Feature", "properties": { "frame_id": 40299, "is_land": 1, "is_north_america": true, "orbit_pass": "ASCENDING", "num_burst_ids": 27, "num_dates": 198, "region_name": "New Mexico" }, "geometry": { "type": "Polygon", "coordinates": [ [ [ -106.684384, 34.753931 ], [ -103.989318, 35.271782 ], [ -103.684072, 33.739835 ], [ -106.332836, 33.230098 ], [ -106.684384, 34.753931 ] ] ] } },
{ "type": "Feature", "properties": { "frame_id": 42262, "is_land": 1, "is_north_america": true, "orbit_pass": "DESCENDING", "num_burst_ids": 27, "num_dates": 246, "region_name": "New Mexico" }, "geometry": { "type": "Polygon", "coordinates": [ [ [ -106.767996, 34.201639 ], [ -106.461934, 35.73338 ], [ -103.696068, 35.446844 ], [ -104.050628, 33.923407 ], [ -106.767996, 34.201639 ] ] ] } },
{ "type": "Feature", "properties": { "frame_id": 42263, "is_land": 1, "is_north_america": true, "orbit_pass": "DESCENDING", "num_burst_ids": 27, "num_dates": 246, "region_name": "New Mexico" }, "geometry": { "type": "Polygon", "coordinates": [ [ [ -107.030401, 32.874223 ], [ -106.727014, 34.406458 ], [ -104.005188, 34.118129 ], [ -104.354533, 32.594111 ], [ -107.030401, 32.874223 ] ] ] } },
{ "type": "Feature", "properties": { "frame_id": 42264, "is_land": 1, "is_north_america": true, "orbit_pass": "DESCENDING", "num_burst_ids": 27, "num_dates": 246, "region_name": "Texas" }, "geometry": { "type": "Polygon", "coordinates": [ [ [ -107.291367, 31.546413 ], [ -106.989701, 33.079033 ], [ -104.30977, 32.788852 ], [ -104.654372, 31.264282 ], [ -107.291367, 31.546413 ] ] ] } },
{ "type": "Feature", "properties": { "frame_id": 42265, "is_land": 1, "is_north_america": true, "orbit_pass": "DESCENDING", "num_burst_ids": 27, "num_dates": 246, "region_name": "Texas" }, "geometry": { "type": "Polygon", "coordinates": [ [ [ -107.551127, 30.218225 ], [ -107.250911, 31.751211 ], [ -104.610226, 31.459041 ], [ -104.950601, 29.933958 ], [ -107.551127, 30.218225 ] ] ] } },
{ "type": "Feature", "properties": { "frame_id": 42266, "is_land": 1, "is_north_america": true, "orbit_pass": "DESCENDING", "num_burst_ids": 27, "num_dates": 246, "region_name": "Chihuahua" }, "geometry": { "type": "Polygon", "coordinates": [ [ [ -107.810068, 28.889702 ], [ -107.510878, 30.423011 ], [ -104.907016, 30.128734 ], [ -105.246234, 28.603605 ], [ -107.810068, 28.889702 ] ] ] } },
{ "type": "Feature", "properties": { "frame_id": 42267, "is_land": 1, "is_north_america": true, "orbit_pass": "DESCENDING", "num_burst_ids": 27, "num_dates": 241, "region_name": "Chihuahua" }, "geometry": { "type": "Polygon", "coordinates": [ [ [ -108.069555, 27.561033 ], [ -107.769992, 29.094476 ], [ -105.203158, 28.798423 ], [ -105.535918, 27.272316 ], [ -108.069555, 27.561033 ] ] ] } },
{ "type": "Feature", "properties": { "frame_id": 42268, "is_land": 1, "is_north_america": true, "orbit_pass": "DESCENDING", "num_burst_ids": 27, "num_dates": 241, "region_name": "Chihuahua" }, "geometry": { "type": "Polygon", "coordinates": [ [ [ -108.326834, 26.231805 ], [ -108.02962, 27.765809 ], [ -105.493304, 27.467145 ], [ -105.822976, 25.940608 ], [ -108.326834, 26.231805 ] ] ] } },
{ "type": "Feature", "properties": { "frame_id": 42269, "is_land": 1, "is_north_america": true, "orbit_pass": "DESCENDING", "num_burst_ids": 27, "num_dates": 241, "region_name": "Chihuahua" }, "geometry": { "type": "Polygon", "coordinates": [ [ [ -108.583722, 24.902274 ], [ -108.287008, 26.436564 ], [ -105.780778, 26.135447 ], [ -106.107694, 24.608505 ], [ -108.583722, 24.902274 ] ] ] } },
{ "type": "Feature", "properties": { "frame_id": 44054, "is_land": 1, "is_north_america": true, "orbit_pass": "ASCENDING", "num_burst_ids": 16, "num_dates": 230, "region_name": "Louisiana" }, "geometry": { "type": "Polygon", "coordinates": [ [ [ -91.12357, 29.608207 ], [ -88.578686, 30.134285 ], [ -88.278158, 28.601109 ], [ -90.788569, 28.082409 ], [ -91.12357, 29.608207 ] ] ] } },
{ "type": "Feature", "properties": { "frame_id": 44055, "is_land": 1, "is_north_america": true, "orbit_pass": "ASCENDING", "num_burst_ids": 27, "num_dates": 223, "region_name": "Louisiana" }, "geometry": { "type": "Polygon", "coordinates": [ [ [ -91.418874, 30.938754 ], [ -88.838416, 31.462592 ], [ -88.538484, 29.929507 ], [ -91.080201, 29.41343 ], [ -91.418874, 30.938754 ] ] ] } },
{ "type": "Feature", "properties": { "frame_id": 44056, "is_land": 1, "is_north_america": true, "orbit_pass": "ASCENDING", "num_burst_ids": 27, "num_dates": 223, "region_name": "Louisiana" }, "geometry": { "type": "Polygon", "coordinates": [ [ [ -91.71778, 32.268802 ], [ -89.099282, 32.790534 ], [ -88.798014, 31.257801 ], [ -91.374964, 30.743992 ], [ -91.71778, 32.268802 ] ] ] } },
{ "type": "Feature", "properties": { "frame_id": 44057, "is_land": 1, "is_north_america": true, "orbit_pass": "ASCENDING", "num_burst_ids": 27, "num_dates": 223, "region_name": "Louisiana" }, "geometry": { "type": "Polygon", "coordinates": [ [ [ -92.02066, 33.598327 ], [ -89.361572, 34.118084 ], [ -89.058645, 32.585731 ], [ -91.673276, 32.074058 ], [ -92.02066, 33.598327 ] ] ] } },
{ "type": "Feature", "properties": { "frame_id": 44321, "is_land": 1, "is_north_america": true, "orbit_pass": "ASCENDING", "num_burst_ids": 20, "num_dates": 158, "region_name": "Baja California Sur" }, "geometry": { "type": "Polygon", "coordinates": [ [ [ -115.369149, 27.619699 ], [ -112.874778, 28.149014 ], [ -112.577385, 26.615025 ], [ -115.039108, 26.093149 ], [ -115.369149, 27.619699 ] ] ] } },
{ "type": "Feature", "properties": { "frame_id": 44322, "is_land": 1, "is_north_america": true, "orbit_pass": "ASCENDING", "num_burst_ids": 24, "num_dates": 157, "region_name": "Baja California Sur" }, "geometry": { "type": "Polygon", "coordinates": [ [ [ -115.659669, 28.951003 ], [ -113.133163, 29.477896 ], [ -112.834815, 27.944245 ], [ -115.326499, 27.424887 ], [ -115.659669, 28.951003 ] ] ] } },
{ "type": "Feature", "properties": { "frame_id": 44323, "is_land": 1, "is_north_america": true, "orbit_pass": "ASCENDING", "num_burst_ids": 20, "num_dates": 157, "region_name": "Baja California" }, "geometry": { "type": "Polygon", "coordinates": [ [ [ -115.953205, 30.28186 ], [ -113.392306, 30.806448 ], [ -113.093049, 29.273113 ], [ -115.616552, 28.756204 ], [ -115.953205, 30.28186 ] ] ] } },
{ "type": "Feature", "properties": { "frame_id": 44324, "is_land": 1, "is_north_america": true, "orbit_pass": "ASCENDING", "num_burst_ids": 24, "num_dates": 158, "region_name": "Sonora" }, "geometry": { "type": "Polygon", "coordinates": [ [ [ -116.250167, 31.612229 ], [ -113.652474, 32.134642 ], [ -113.35201, 30.601651 ], [ -115.909573, 30.087074 ], [ -116.250167, 31.612229 ] ] ] } },
{ "type": "Feature", "properties": { "frame_id": 44325, "is_land": 1, "is_north_america": true, "orbit_pass": "ASCENDING", "num_burst_ids": 27, "num_dates": 152, "region_name": "Southern California" }, "geometry": { "type": "Polygon", "coordinates": [ [ [ -116.550913, 32.942087 ], [ -113.913946, 33.462453 ], [ -113.61196, 31.929832 ], [ -116.205969, 31.417459 ], [ -116.550913, 32.942087 ] ] ] } },
{ "type": "Feature", "properties": { "frame_id": 44326, "is_land": 1, "is_north_america": true, "orbit_pass": "ASCENDING", "num_burst_ids": 27, "num_dates": 156, "region_name": "Southern California" }, "geometry": { "type": "Polygon", "coordinates": [ [ [ -116.855742, 34.271422 ], [ -114.17768, 34.789763 ], [ -113.873179, 33.257631 ], [ -116.506091, 32.747335 ], [ -116.855742, 34.271422 ] ] ] } },
{ "type": "Feature", "properties": { "frame_id": 44327, "is_land": 1, "is_north_america": true, "orbit_pass": "ASCENDING", "num_burst_ids": 27, "num_dates": 153, "region_name": "Arizona" }, "geometry": { "type": "Polygon", "coordinates": [ [ [ -117.165151, 35.600195 ], [ -114.442626, 36.116744 ], [ -114.136619, 34.584939 ], [ -116.810237, 34.076689 ], [ -117.165151, 35.600195 ] ] ] } },
{ "type": "Feature", "properties": { "frame_id": 44328, "is_land": 1, "is_north_america": true, "orbit_pass": "ASCENDING", "num_burst_ids": 27, "num_dates": 152, "region_name": "Arizona" }, "geometry": { "type": "Polygon", "coordinates": [ [ [ -117.483723, 36.927725 ], [ -114.709647, 37.443295 ], [ -114.40123, 35.911911 ], [ -117.118898, 35.405483 ], [ -117.483723, 36.927725 ] ] ] } },
{ "type": "Feature", "properties": { "frame_id": 46288, "is_land": 1, "is_north_america": true, "orbit_pass": "DESCENDING", "num_burst_ids": 27, "num_dates": 309, "region_name": "Northern California" }, "geometry": { "type": "Polygon", "coordinates": [ [ [ -116.691209, 36.011689 ], [ -116.382403, 37.542917 ], [ -113.550121, 37.258292 ], [ -113.91284, 35.735733 ], [ -116.691209, 36.011689 ] ] ] } },
{ "type": "Feature", "properties": { "frame_id": 46289, "is_land": 1, "is_north_america": true, "orbit_pass": "DESCENDING", "num_burst_ids": 27, "num_dates": 309, "region_name": "Southern California" }, "geometry": { "type": "Polygon", "coordinates": [ [ [ -116.956735, 34.684928 ], [ -116.649771, 36.216503 ], [ -113.866367, 35.93041 ], [ -114.22675, 34.407784 ], [ -116.956735, 34.684928 ] ] ] } },
{ "type": "Feature", "properties": { "frame_id": 46290, "is_land": 1, "is_north_america": true, "orbit_pass": "DESCENDING", "num_burst_ids": 27, "num_dates": 308, "region_name": "Southern California" }, "geometry": { "type": "Polygon", "coordinates": [ [ [ -117.221872, 33.357941 ], [ -116.915636, 34.889742 ], [ -114.181045, 34.602517 ], [ -114.532124, 33.078674 ], [ -117.221872, 33.357941 ] ] ] } },
{ "type": "Feature", "properties": { "frame_id": 46291, "is_land": 1, "is_north_america": true, "orbit_pass": "DESCENDING", "num_burst_ids": 27, "num_dates": 308, "region_name": "Arizona" }, "geometry": { "type": "Polygon", "coordinates": [ [ [ -117.483268, 32.030266 ], [ -117.18107, 33.562769 ], [ -114.487118, 33.273428 ], [ -114.833291, 31.749023 ], [ -117.483268, 32.030266 ] ] ] } },
{ "type": "Feature", "properties": { "frame_id": 46293, "is_land": 1, "is_north_america": true, "orbit_pass": "DESCENDING", "num_burst_ids": 9, "num_dates": 306, "region_name": "Baja California" }, "geometry": { "type": "Polygon", "coordinates": [ [ [ -118.002646, 29.373813 ], [ -117.703051, 30.90701 ], [ -115.086851, 30.613642 ], [ -115.424604, 29.088208 ], [ -118.002646, 29.373813 ] ] ] } },
{ "type": "Feature", "properties": { "frame_id": 46294, "is_land": 1, "is_north_america": true, "orbit_pass": "DESCENDING", "num_burst_ids": 1, "num_dates": 300, "region_name": "Baja California" }, "geometry": { "type": "Polygon", "coordinates": [ [ [ -118.260779, 28.045029 ], [ -117.962507, 29.578604 ], [ -115.381345, 29.28301 ], [ -115.715442, 27.757093 ], [ -118.260779, 28.045029 ] ] ] } }
]
}
